id,lat,lon,type,title,street number,street name,last seen,ratings,host id,host name,owner name,comments,2023 approved
1006078189470657992,38.05876662019509,-78.49060191830371,entire_home,"4 Mins to UVA Grounds, Peaceful 3BR House",,,2024-05-04,6,404763233,Jennifer And Bob,,,false
1006153501856304492,38.06716585135229,-78.50235103608019,entire_home,Guest house close to UVA-Scott stadium-barrack Rd.,93,Biltmore Dr,2024-05-04,9,160726034,Alit,,,false
1007942490771431798,38.0232093,-78.4591324,private_room,A Quiet Room of Your Own,1704,E Market St,2024-05-04,20,12526301,Jennifer,,,false
1014639693035681045,38.024692923900396,-78.50078661021283,entire_home,Close to UVA!,,,2024-05-04,,43681101,Colin,,,false
1018757806893288124,38.067589584003926,-78.50293305418897,private_room,Master King bedroom/P-bathroom,99,Biltmore Dr,2024-02-14,,,,,,false
1020362793425373820,38.02804107043091,-78.48970291410158,entire_home,The Great Location,405,5th St SW,2024-05-04,13,346410214,Latasha,James Dennis,,false
1025402419480231876,38.02423270656678,-78.4774767864233,entire_home,Home in Belmont,,,,,,,,,false
1025463147028544520,38.021917220479494,-78.4994997054889,entire_home,Cozy Charlottesville Oasis: Close to Everything!,,,,,,,,,false
1028261869280662256,38.03996708122524,-78.500692139258,shared_room,Lovely comfy room near UVA,,,2024-05-04,6,107694067,Yi-Hsiang,,,false
1028482460271712262,38.01896247022697,-78.47115358593851,entire_home,Townhouse 3 bedroom unit,104,Waterbury Ct,2024-03-07,,,,,,false
1037082994400241691,38.02363859347604,-78.5187719533725,private_room,10 Minute Walk to UVA Campus & UVA Hospital Room A,,,2024-05-04,4,434917982,QiaoRong,,,false
1037501450937026919,38.02169154743187,-78.51889093661474,private_room,10 Minute Walk to UVA Campus & UVA Hospital Room B,,,2024-05-04,10,434917982,QiaoRong,,,false
1037609217915441536,38.02687,-78.51849,entire_home,"The Nook at UVa- alumni, parents, game fans!",,,,,,,,,false
1038184673167096086,38.02355347270491,-78.5171751303617,private_room,10 Minute Walk to UVA Campus & UVA Hospital Room C,,,2024-05-04,20,434917982,QiaoRong,,,false
1038492888505731204,38.02303733344418,-78.51769181973651,private_room,10 Minute Walk to UVA Campus & UVA Hospital Room E,,,2024-05-04,23,434917982,QiaoRong,,,false
1038580886894804269,38.02171253910557,-78.51731898137515,private_room,10 Minute Walk to UVA Campus & UVA Hospital Room F,,,2024-05-04,22,434917982,QiaoRong,,,false
1039224589904816833,38.02325039054416,-78.49054260068665,entire_home,Apt 3 in Historical Building w/Mountain Views,752,Ridge St,2024-05-04,,329306210,Cville,,,false
1055005861744581944,38.0265977655564,-78.48613869830626,entire_home,Historic Home in Downtown Cville,,,,,,,,,false
1055392521678470008,38.02313671378294,-78.47828812369153,entire_home,Charming 2BR Apt near Pavilion,717,Bolling Ave,2024-05-04,13,108937443,Basleal,Henry Zimmerman,,false
1061883191529254227,38.035621729353416,-78.49506035509039,private_room,"Private Bedroom, Easy Walk to UVA",,,,,44292656,Miranda,,,false
1063743896351178809,38.02140112632629,-78.46779951171935,entire_home,Newly renovated home in Belmont!,501,Rives St,2024-05-04,12,513812184,Alexa,,,false
1064444753290306928,38.0211054252206,-78.4824960017182,entire_home,The Belmont Butter House,617,Altavista Ave,2024-05-04,,4667033,Chelsea,Nikolai Braun,,false
1064502034963389776,38.03429755295625,-78.46677928723314,entire_home,Classic Downtown Home,1200,Hazel St,2024-05-04,,402407508,Annie,,,false
1064548421494689449,38.026519319418064,-78.47258797042562,entire_home,Belmont Penthouse Apartment (30 Day Min),200,Douglas Ave,,,24936886,Guesthouses,,,false
1068103441938282447,38.028445070676455,-78.47197708383813,entire_home,C'ville Downtown Retreat,1101,E Market St,2024-05-04,3,556270836,Market,11th St Partners LLC,,false
10710588,38.01837864336701,-78.49515223707957,private_room,Comfortable & Convenient in Cville,1017,Ridge St,2024-05-04,267,55351778,Michele,,,false
1081122999268669094,38.01846823298966,-78.46671375501441,entire_home,Vine Street Midterm: Cville Rental 31+ Day Stays,,,2024-04-28,,36469809,Jamie Inlow,,Be Still Getaways LLC - all 30+ day minimum,false
1081557257714966935,38.0403087491478,-78.51503372695909,entire_home,Luxury home amazing location Charlottesville,2110,Minor Rd,2024-03-02,,,,,,false
1086962193136305054,38.03467844791122,-78.48385055519387,entire_home,"Steps from UVA, Downtown Mall, Spacious Apartment",,,2024-05-04,9,381164446,Mike,,,false
1091297525482140660,38.0249868,-78.47513889999999,entire_home,Cozy Belmont Loft ~ 3 blocks to downtown,,,2024-05-04,4,64037151,Cotton Candy LLC - Laura Van Camp,,,false
1095965969157765395,38.0183553,-78.47137839814758,private_room,A Townhouse,,,2024-03-02,,,,,,false
1097397882660942445,38.02588343477309,-78.46557807747027,entire_home,Wonderful Family House.,1321,E Market St,2024-02-26,,,,,,true
10983225,38.021415235027,-78.47629440744862,entire_home,Cozy Cottage minutes from downtown!,907,Blenheim Ave,2024-05-04,211,29442709,Zoe&Jay,,,false
1100775327807998359,38.0249868,-78.47513889999999,entire_home,Heart of Belmont 1BR Apt ~ 3 blocks to downtown,,,2024-05-04,5,64037151,Laura,,,false
1105155170306211776,38.045344507968665,-78.49981129999999,entire_home,Walk to UVA,,,2024-05-04,,36822748,Marian,,,false
1106737406380697204,38.02505801420858,-78.46602139562545,entire_home,"Cozy, central, quiet home.",,,2024-05-04,,20988813,Gabrielle,,,false
11094566,38.03593914305089,-78.49017560551695,entire_home,Downtown Pool House. Walk Downtown and to UVA,420,9th St NW,2024-05-04,89,55264311,Robyn Templeton,Robyn Templeton,ADU,true
1110833200299943423,38.0148241,-78.5167666,entire_home,One mile to UVA! Stylish Apt!,,,2024-05-04,,566705210,Kelly,,,false
1113285875794392357,38.01776242861361,-78.47858030926557,entire_home,Cozy Belmont home with Mtn view,,,2024-04-28,,408226560,Chris,,,false
11143292,38.01712904423486,-78.49315566301281,entire_home,Large & Bright-Near Downtown/UVA for Big Groups,931,Raymond Rd,2024-05-04,145,57914113,Jennifer,,,false
1116633271527263955,38.04572716492326,-78.4946196592674,entire_home,"Rugby Retreat |3 bd, 2.5 ba | Heart of UVA Grounds",921,Rugby Road,2024-04-28,,24936886,Guesthouses,P2T LLC,purchased Jul 2023,false
1116771384480483899,38.028452157357755,-78.474678001615,entire_home,"6 min Walk to Downtown Mall, Rustic Bohemian Digs!",,,2024-05-04,3,403083793,Brian,,,false
1117252673324335009,38.03735966137458,-78.44631124287844,private_room,Cozy private room/ bathroom,,,2024-04-18,,,,,,false
1118132377841336068,38.0263140389706,-78.48543252766271,entire_home,"Walkable, Bright & Hip Downtown Home, Rooftop Deck",,,2024-05-04,,44292656,Miranda,,,false
1122480883454029353,38.01752585095296,-78.47634797798342,entire_home,Four story Cville townhouse,,,2024-05-04,,22758779,Elizabeth,,,false
1125788736514824955,38.02661142401734,-78.47366179275349,entire_home,"6 min Walk to Downtown Mall, Rustic Bohemian Digs!",,,2024-05-04,,403083793,Brian,,,false
1127504362242197839,38.0229001,-78.4776983,entire_home,Belmont Beach Cottage,,,2024-05-04,,26742205,Ashley,,,false
1129146459374527971,38.067774487775864,-78.49807588461499,entire_home,"5 mins to UVA, Grill, Firepit",,,2024-05-04,,456167178,Master Suites,,,false
1134716949675822744,38.042877475311876,-78.46249521014246,entire_home,"Locust Garden, A North Downtown C'ville Guesthouse",,,2024-05-04,,452695413,Airkey,,,false
1138005,38.04309,-78.46047,private_room,Woodside Downtown Charlottesville Retreat,,,2024-05-04,39,6226940,Cynthia,,,false
1141660346865223882,38.03288190563891,-78.46091465931833,entire_home,Stunning house! Big fenced private yard for dogs!,,,2024-05-04,,128718050,Brent,,,false
1147087899330506526,38.03952046242997,-78.4841308220754,entire_home,Downtown Charlottesville Bungalow close to UVA,,,2024-05-04,,28101883,Betsy,,,false
1147772835972255854,38.015128433623005,-78.50739291164005,entire_home,Goddess Cottage,,,2024-05-04,,,,,,false
11557016,38.01837864336701,-78.49515223707957,private_room,Cozy and Convenient in Cville,1017,Ridge St,2024-04-28,223,55351778,Michele,,,false
1186869,38.03997,-78.49211,entire_home,Do Drop Inn - charming 2BR bungalow,,,2024-05-04,451,6490125,Ann McDaniel,Ann McDaniel,,false
11926883,38.01832592858433,-78.49304243813778,entire_home,"Bright, Spacious Home Perfect for Groups (5 Beds)",913,Raymond Rd,2024-05-04,146,231661195,Hunter,,,true
12056699,38.02146697442968,-78.50068198006933,private_room,Large studio/private entrance. Walk to UVA.,110,Elkhorn Rd,2024-05-04,126,64579160,Elizabeth,,,false
12125053,38.033430632325725,-78.47960764554094,private_room,Cope Foster - King Room Downtown Cville!,409,2nd St NE,2024-05-04,71,24936886,Guesthouses,,,true
12339369,38.0465,-78.5008,entire_home,"Walk to UVA, Athletics, Shopping",,,,,,,,,false
1300232,38.0297,-78.49316,entire_home,Comfy & Unique Fifeville Studio,,,2024-05-04,214,1211743,Oliver And Natasha,,,false
1300790,38.029176125584094,-78.49186841342748,entire_home,Classy new renovation in Fifeville,317,7 1/2 St SW,2024-05-04,292,1211743,Oliver And Natasha,,,false
13058472,38.03133215349232,-78.48247093904051,hotel_room,Townsman Hotel | Poe Room,211,W Main St,2024-05-04,194,41399220,Oliver And Natasha,,,false
13058517,38.03133215349232,-78.48247093904051,hotel_room,Townsman Hotel | Meriwether Room,211,W Main St,2024-05-04,95,41399220,Oliver And Natasha,,,false
13058556,38.03133215349232,-78.48247093904051,hotel_room,Townsman Hotel | Secretariat Room,211,W Main St,2024-05-04,107,41399220,Oliver And Natasha,,,false
13058593,38.03133215349232,-78.48247093904051,hotel_room,Townsman Hotel | Faulkner Room,211,W Main St,2024-05-04,102,41399220,Oliver And Natasha,,,false
1334381,38.04048,-78.46498,entire_home,Bright Private apt (Separate entrance) near DT,,,2024-05-04,170,7236618,Elizabeth,,,false
13544918,38.0310894145896,-78.46412329841641,entire_home,2br/2ba Sunny Contemporary Cottage. Walkable!,518,Meade Ave,,,12257171,Renee,,,false
13575178,38.04371,-78.49191,private_room,Favors UVA grad med student types queen w/ pvt BRm,,,2024-04-28,25,549537,Penn,,,false
13680171,38.02414,-78.47544,entire_home,"Beautiful Belmont Apartment, 
Walk Everywhere!!",700,Graves St,,,,,,,true
13715759,38.062867208795275,-78.50373280484423,entire_home,Terrace apartment with separate entrance.,136,N Bennington Rd,2024-05-04,209,6645673,Jennifer,,,false
13743664,38.01965211311583,-78.4840846375656,entire_home,"Cozy Stonehenge Cottage:Work,Family&Dog Friendly",632,Stonehenge Ave,2024-04-25,313,80473852,Holly Hertberg,Kevin Davis,,false
13890978,38.02526156976197,-78.47827789770787,entire_home,"HISTORIC ""BELMONT HOUSE""  near the  Downtown Mall",520,Avon St,2024-05-04,12,82268357,Nancy Hampson,Nancy Hampson,,false
13951613,38.03473541774199,-78.48211233475222,entire_home,Downtown Cottage Walk to the Mall!,415,McIntire Rd,2024-05-04,245,3033967,Charles,,,false
14074923,38.07076,-78.49411,private_room,Sylvicka's Place-owner Sylvia Cechova,,,2024-05-04,69,84566628,Sylvia,,,false
14216931,38.02593,-78.47788,private_room,Belmont House  Double Bedroom - Downtown Mall,,,2024-05-04,61,82268357,Nancy,,,false
14333131,38.01358318015203,-78.49273634136861,entire_home,Willoughby Suite | Quiet | Near Downtown,102,Towler Pl,2024-05-04,172,38779675,Melanie,,,false
14393956,38.02524919022379,-78.47828185340543,private_room,"Historic Belmont House - downtown mall ""Kingsize""",520,Avon St,2024-05-04,68,82268357,Nancy,,,false
14394002,38.02531751585741,-78.47825417352477,private_room,Historic Belmont House downtown - Queen bedroom,520,Avon St,2024-05-04,47,82268357,Nancy,,,false
14397945,38.025186320166256,-78.47827999169338,private_room,Historic Downtown Belmont Special  two room offer!,520,Avon St,2024-05-04,33,82268357,Nancy,,,false
14932235,38.028908861968425,-78.49625590949815,entire_home,Blue Bungalow | Renovated 1890`s Farmhouse,917,Cherry Ave,2024-04-18,108,,,,,false
14982635,38.03311952985463,-78.47250661259996,entire_home,Charming bungalow 3 blocks from the Downtown Mall,500,Lexington Ave,2024-05-04,64,71475858,Janet,,,true
15038321,38.04746419741206,-78.48806895896114,entire_home,Apartment on Oxford Road - UVA walkable & Quiet!,1614,Oxford Rd,2024-05-04,67,94991626,Kathleen,,,false
15039876,38.04569662206521,-78.46190800599491,entire_home,Mosaic Villa For 6 With A View,1111,Holmes Ave,2024-05-04,80,1607528,Eileen & Mark,,,false
15278354,38.022169706104414,-78.47217714216613,entire_home,Beautiful Sunny 1 bedroom Home In Charlottesville,1111,Leonard St,2024-04-28,338,44940909,Seth,,,false
15309817,38.01568,-78.50015,private_room,Master Bed Room with King Bed(Near UVA & Downtown),,,2024-05-04,14,17274235,Nazish,,,false
15310376,38.01568,-78.50015,private_room,Cozy Room- (Near UVA & Downtown),,,2024-05-04,6,17274235,Nazish,,,false
156430,38.03876,-78.47933,entire_home,★1 BR Private Apartment in Downtown Cville★,622,McIntire Rd,2024-05-04,514,752170,Andrew McClure,George Vaughan,,true
15857729,38.02751,-78.46383,private_room,Bright Cheerful Suite On Second Floor,,,2024-05-04,59,94005549,Drew,,,false
15911472,38.0313182353314,-78.47872955427943,entire_home,Historic Cville Row House 1 Block to Downtown Mall,215,4th St NE,2024-05-04,133,103212070,Bill,Commonwealth Estates LLC,,false
16228345,38.01630445563019,-78.48411048110296,entire_home,Lovely apartment in Belmont Cville neighborhood,108,Blincoe Ln,2024-05-04,110,52712836,Peter McFarren,Peter McFarren,,false
164672,38.0601433814732,-78.47452874780181,entire_home,Sunny Garden Apartment,1504,Bunker Hill Dr,2024-05-04,27,785295,Eve,,,false
16585621,38.01846092727348,-78.4929918017751,entire_home,"Clean, central, spacious, private - UVA/Downtown",909,Raymond Rd,2024-05-04,208,43963781,Tara And Mark,,,true
17041059,38.07387651272423,-78.45448099770101,entire_home,Chateau Chamberlain in Charlottesville VA,1158,Farrow Dr,2024-05-04,75,46969206,Luanne And Kelly,,,false
17337587,38.027200376260986,-78.4736122133679,entire_home,Modern Belmont home - steps from Downtown Mall!,203,Douglas Ave,2024-05-04,692,16414354,Melissa Charles,Melissa Charles,,true
17385872,38.05183222346127,-78.46482501169213,entire_home,Rockbrook Manor,7,Rockbrook Dr,2024-05-04,120,117519894,Terry,,,false
17546107,38.02664341974816,-78.47414980985889,entire_home,Two Bedrooms- Big Covered Porch-No Cleaning Fee,209,Douglas Ave,2024-05-04,74,49543163,Janice Kavanagh,Janice Kavanagh,,true
17692064,38.038550695103304,-78.4738864591399,entire_home,Park Street Retreat - #B,722,Park St,2024-05-04,23,76362073,Alison,,,false
1792587,38.04381,-78.45725,private_room,"Cape Cod in Locust Grove, C'ville",,,2024-05-04,382,10167603,Amanda,,,false
18021210,38.01586385381718,-78.50011640684396,entire_home,"Large 4 Bedroom Home near UVA,Downtown & Wineries",131,Old Fifth Cir,2024-05-04,103,17274235,Nazish,,,false
18041128,38.02439480836816,-78.4617286688121,entire_home,Architecturally-renovated Downtown 4BR farmhouse,1601,E Market St,2024-05-04,52,42420463,Summer Thompson,Summer Thompson,,true
18055716,38.02547127673013,-78.52213198451842,entire_home,Doggone Fun 3bdr UVA Home with free breakfast,2517,Plateau Rd,2024-05-04,185,74943809,Jeannie,,,false
18136875,38.026771661648326,-78.4765694436748,entire_home,Lovely Downtown 5 Bedroom Renovated Home,309,Monticello Rd,2024-05-04,4,5657961,Mairin,,,false
18254761,38.04573282110229,-78.48488681625324,entire_home,Beautiful renovated home - walk to UVA & downtown,1515,Rugby Ave,2024-05-04,27,86606993,Lauren,,,true
18563785,38.03685305958943,-78.46438786352414,entire_home,Chville home away from home.,1200,Long St,2024-04-25,51,14050774,Treat,,,false
18566944,38.05844,-78.45195,private_room,Woodlands Retreat,,,2024-05-04,,36821231,Martha Jean,,,false
18601797,38.01752514279524,-78.50202807410773,entire_home,Spacious suite in the heart of Charlottesville,834,Village Rd,2024-05-04,528,88378487,Ami Smith,Ami Smith,,false
18631989,38.03041620074184,-78.4706318649114,entire_home,Kid and Family Friendly Downtown,1102,Little High St,2024-05-04,107,4426278,Rick,,,false
18665941,38.020014392470536,-78.47327223823633,entire_home,Downtown living,1115,Blenheim Ave,2024-05-04,88,91335186,Billy White,Billy White,,true
18689465,38.02448,-78.47708,entire_home,"Luxury, open space, in the HEART of Belmont!",,,2024-05-04,531,13600607,Katie,,,false
18689593,38.0342908323976,-78.49049157825543,entire_home,"Downtown studio, walk to corner/downtown mall/UVA",807,Page St,2024-05-04,523,119836567,C&P,Ashley Gardner,,true
18717752,38.030300321682795,-78.49396513502786,entire_home,Victorian Treehouse In The Heart of Cville,829,Nalle Street,2024-05-04,188,7271898,Johnny And Celina,,,false
19068442,38.02283791146412,-78.49995015851228,entire_home,UVA Hospital Area Private Entrance Free Parking,709,Rockcreek Rd,2024-05-04,247,133118844,Shawn,,,true
19431411,38.0315,-78.46784,private_room,"2 room private suite, walk to downtown mall",,,2024-05-04,120,24838384,Gail,,,false
19459526,38.05047,-78.49934,entire_home,UVA Area Tree Top Apt,1895,Westview Rd,2024-05-04,82,14285858,Yates,,,true
1948995,38.02799325971545,-78.4634205807512,private_room,Three rooms-walk to downtown,413,Fairway Ave,2024-05-04,95,10078633,Raven N Flame,,,true
19659797,38.02166,-78.45883,entire_home,Charlottesville Woolen Mills Vacation Like a Local,,,2024-05-04,284,138405449,Jay,,,false
19700853,38.02269,-78.50007,private_room,"1 Bedroom in Downtown C-ville, Kid-Friendly!",,,2024-05-04,129,138800968,Shelby,,,false
19796446,38.03245556050893,-78.48900949849912,entire_home,"Walk Downtown, Corner, and UVA Grounds/Hospital!",612,Brown St,2024-05-04,189,58240035,Amanda Stevens,Amanda Stevens,,true
19840754,38.06042,-78.48466,private_room,"City convenience, cozy privacy",,,2024-03-07,180,,,,,false
20193549,38.023730409504985,-78.48818276323506,entire_home,Blue Heron: Beautiful new downtown apartment,106,Burnet Way,2024-05-04,212,3107782,Joseph & Nina Thompson,Joseph & Nina Thompson,,true
20430324,38.01925017850327,-78.51014425120101,entire_home,Cozy 3 bedroom home near UVa and Downtown Mall.,2508,Willard Dr,2024-05-04,180,145768862,Bobby,,,false
20686304,38.07175,-78.46842,private_room,"Entire walk-in basement, 3.5 mi Downtown, 6 mi UVA",,,2024-02-14,,,,,,false
21150886,38.01432620840676,-78.47896510046917,entire_home,Spacious and Private City home!,1011,Rougemont Ave,2024-02-23,,152614355,Chris,,,true
21241880,38.049573095607116,-78.48351336772949,entire_home,Greenleaf Grove,1502,Greenleaf Ln,2024-03-07,96,72193913,Kathleen,,,true
21413176,38.02199974843167,-78.4824502496175,entire_home,Belmont Base for Charlottesville Adventures!,613,Elliott Ave,2024-05-04,204,1430068,Patrick,,,true
21548943,38.01582,-78.49477,entire_home,"Cozy Family Home close to UVA, Downtown, and 64!",,,2024-05-04,6,156672172,Bethany,,,false
21658945,38.03014803025208,-78.48362427567206,entire_home,Luxurious Posh Downtown Condo,218,W Water St,2024-05-04,153,155113249,Isaac,,,false
22433028,38.02922041662217,-78.4855061652135,entire_home,The Cottage on Ridge-Downtown Mall Charlottesville,214,Ridge St,2024-05-04,130,34596905,Christine,,,false
22494093,38.0242910776206,-78.50546474204086,entire_home,"3 bdrm home 1 mile from UVA, No extra fees!",1511,Cherry Ave,2024-05-04,127,9888537,Hannah Gleiter,Hannah Gleiter,,false
22626013,38.02499713713537,-78.47513405654533,entire_home,Blue Bell | Private Parking Space | Fast WiFi,227,Douglas Ave,,,,,,,false
22881264,38.022875414178046,-78.49993315567767,entire_home,2 BDRM Spacious & Private Apt Close to Downtown,709,Rockcreek Rd,2024-05-04,339,57914113,Jennifer,,,true
23004014,38.02298,-78.47411,entire_home,BELMONT DESIGNER APARTMENT- CVILLE CHARM,,,2024-05-04,566,13600607,Katie,,,false
23163410,38.02564,-78.48654,entire_home,Downtown Retro Retreat,,,2024-05-04,144,38399988,Claire & Logan,,,false
23257938,38.05441,-78.45634,entire_home,Great 3 BR home near UVA and Downtown!,,,2024-05-04,9,173117677,Tod,,,false
23271179,38.02499713713537,-78.47513405654533,entire_home,Green Ivy | Private Parking Space | Fast WiFi,227,Douglas Ave,2024-02-14,,,,,,false
23336579,38.02941422977219,-78.50596145750367,entire_home,“Yellow Cottage”  10 min walk to UVA graduation!,523,Valley Rd,2024-02-26,34,52333178,Janette,,,false
2350534,38.07839545822809,-78.45809129911903,entire_home,Spacious private suite in quiet neighborhood,2613,Huntington Rd,2024-05-04,173,12002558,Kathy & Roy,,,false
23542836,38.078409148661784,-78.45809129905543,entire_home,Spacious Victorian Suite on the Rivanna Trail,2014,Lewis Mountain Rd,2024-04-18,166,163153152,Jason,,,false
23693768,38.01455699904383,-78.48068796720918,entire_home,Family-friendly 3BR on quiet street in Belmont,912,Rougemont Ave,2024-05-04,18,3075621,Mandy,,,false
23918430,38.02766,-78.45383,private_room,Riverside Hideaway: spacious garden level studio,,,2024-05-04,382,16759425,Debbie,,,false
2399994,38.04696001580177,-78.4843147542884,entire_home,Oxford Cottage: Cville’s favorite tiny home!,1508,Oxford Rd,2024-05-04,668,5759618,Alyson Snider,Alyson Snider,,true
24076293,38.04782718687262,-78.50204254840544,entire_home,"Serene and spacious home, <1 mile walk to UVA lawn",901,Fendall Ter,2024-05-04,13,26376300,Jim,,,false
24371386,38.02620445266543,-78.5180417326537,entire_home,"Close to UVA, walk to restaurants, free trolley",2317,Fontaine Ave Extended,2024-05-04,124,54761694,Peter,,,false
24451050,38.026748693549806,-78.47345034950156,entire_home,West Wing,204,Douglas Ave,2024-05-04,249,10154814,Joan Schatzman,Joan Schatzman,,true
24532721,38.02526156976197,-78.47827789770787,private_room,Historic Belmont House downtown - Queen Bedroom 2,520,Avon St,2024-05-04,38,82268357,Nancy,,,false
24736213,38.06116857942634,-78.46731330725702,entire_home,Renovated Basement unit with private entrance,2216,Banbury St,2024-05-04,26,186023090,Uche Njoku,Uche Njoku,,false
24748029,38.038105897052596,-78.51487991215112,entire_home,Steps to UVa- New & Clean,2014,Lewis Mountain Rd,2024-05-04,72,75412768,Channa,,,false
24920102,38.02548343217112,-78.47474401698547,entire_home,Downtown Belmont City Retreat,221,Douglas Ave,2024-05-04,3,82188010,Katie,,,false
24963206,-78.49398238033666,-78.49314,private_room,"Great house, great location! Dogs welcome :)",199,Brookwood Dr,2024-02-13,,,,,,false
25031828,38.026034011657245,-78.46580042806079,entire_home,"Woolen Mills Cottage- 2 Beds, 1 Bath, Full Kitchen",1319,E Market St,2024-05-04,220,189230260,Charles Woolheater,Charles Woolheater,,false
25204022,38.04496809850571,-78.487849155965,entire_home,Central Charlottesville Living in a Well-Appointed Home,1301,Greenway Rd,2024-05-04,49,25533566,Craig,,,true
25628663,38.02043262936615,-78.48568769850593,entire_home,City Home in Belmont with Nature All Around,501,Stonehenge Ave,2024-02-25,130,,,,,true
25717437,38.02570654845529,-78.47941313396909,entire_home,"Belmont Classic/Modern Reno, Walkable",613,Belont Ave,2024-04-28,130,8915416,Girish And Rita,Girish Kori,,false
25802228,38.02556166907554,-78.47671825656215,entire_home,HighGround on Hinton,727,Hinton Ave,,,,,,,false
2591146,38.04599,-78.50007,private_room,"Comfort, Convenience, & Charm - The Charles Suite",,,,,7320404,Anne,,,false
26560609,38.0271270455959,-78.47497660737406,entire_home,"Corner House | Stylish Belmont Home, near Downtown",742,Graves St,2024-05-04,100,41399220,Stay Charlottesville,,,false
26714842,38.03455187985652,-78.47956481409543,entire_home,Spacious Sunny 1 Bedroom + Study +Double Bathroom,501,1st St N,2024-05-04,70,138769224,Genevieve,,,false
27110175,38.0449,-78.45663,entire_home,The Burrow (Bring Own Wands),,,,,,,,,false
27576154,38.01997052103973,-78.4703776307907,entire_home,"Net Zero, Guilt Free Living! 1 mile from DT",1308,Hampton St,2024-05-04,280,208065601,Joni,,,false
27666996,38.027200376260986,-78.4736122133679,entire_home,Belmont Home with Hot Tub - steps from Downtown,203,Douglas Ave,2024-05-04,135,16414354,Melissa Charles,Melissa Charles,,true
27719797,38.01997052103973,-78.4703776307907,entire_home,100% Solar Home! Guilt Free Living 1 mile from DT,1308,Hampton St,2024-04-28,314,208065601,Joni,,,false
27820944,38.01033963317488,-78.49497101323998,entire_home,The Empty Nest,923,Royer Dr,2024-02-13,,210087320,Cris,,,false
28340277,38.01616125967863,-78.51031228857369,entire_home,Cavalier Carriage House Suite | Near UVA,106,Oak Lawn Dr,2024-05-04,101,289159848,Blue Ridge BnB,,,false
28856729,38.04627,-78.49883,entire_home,Peaceful and Spacious Woodland Haven Near UVA,,,2024-05-04,145,44292656,Miranda,,,false
29263972,38.04198,-78.46509,entire_home,Giallo House | Self Check-in,,,2024-05-04,554,161735737,Matt,,,false
29334145,38.044021071590144,-78.4984430468296,entire_home,Fabulous Rugby Rd Luxury Home-Walk to UVA & MainSt,803,Rugby Rd,2024-05-04,21,220985181,Diane,,,true
29452766,38.023269534665744,-78.47491328276783,entire_home,Designer Belmont Apartment! Close to everything!,910,Belmont Ave,2024-05-04,482,13600607,Katie,VA Pacific Investments,,false
30444903,38.03981,-78.46039,private_room,Room no.2 - Guesthouse,,,2024-04-25,288,228444276,Chhabi,,,false
30445193,38.04184,-78.46058,private_room,Room no. 3 - Guesthouse,,,2024-04-28,274,228444276,Chhabi,,,false
30448133,38.04134,-78.45997,private_room,Room no.1 - Guesthouse,,,2024-04-28,267,228444276,Chhabi,,,false
30568760,38.02241996104544,-78.5088434273862,entire_home,Charming Cherry Cottage - UVA & Downtown Area,1631,Cherry Ave,2024-05-04,219,44975968,Lance Allen,Lance Allen,,false
3061401,38.02903,-78.4641,private_room,Two Queen Rooms - Near Downtown,,,2024-05-04,93,10078633,Raven N Flame,,,false
3061458,38.02925,-78.46383,private_room,Queen Room - Walk to downtown,,,2024-05-04,103,10078633,Raven N Flame,,,false
31017496,38.03421575436633,-78.49012673475369,entire_home,The Urban Cottage in the center of C-Ville!,801,Page St,2024-05-04,442,28188056,Ashley,Ashley Gardner,,true
31164550,38.03312,-78.48132,entire_home,The Downtown Treehouse,,,2024-05-04,6,75471162,Gia,,,false
31189272,38.04134423354032,-78.4610998754353,entire_home,"Locust Grove Retreat- 3 Bed, 1 Bath, Full Kitchen",1027,Martin St,2024-04-25,235,233179907,Chris,,,false
31190062,38.0223,-78.51458,private_room,Fry's Spring Bliss,,,2024-05-04,45,22397450,Bill And Ruth,,,false
31255844,38.01648575645163,-78.51001373626862,entire_home,"NEW Cville ""Southern Living"" HOME 4 bdrm",109,Oak Lawn Dr,2024-05-04,50,14444672,Lora,,,false
31568345,38.02957350706933,-78.46715453374647,entire_home,"Cozy basement guest suite, 15 min walk to downtown",1211,Little High St,2024-05-04,142,7173087,Laura,,,false
31888613,38.03646562682611,-78.49298139642006,entire_home,Your C-Ville Home Away From Home -Vacation Rental,339,10th St NW,2024-05-04,80,253769,Taneia,Antoinette Thomas,,false
31961919,38.01575983871654,-78.51045490786238,entire_home,Modern Carriage House Near UVA,104,Oak Lawn Ct,2024-05-04,152,18283461,Mallory,,,true
31961919,38.01575983871654,-78.51045490786238,entire_home,Modern Carriage House Near UVA,104,Oak Lawn Ct,2024-05-04,152,18283461,Mallory,,,true
32156338,38.01580386748928,-78.5104655447444,entire_home,Gorgeously Updated Home-Minutes to UVA,104,Oak Lawn Ct,2024-05-04,,24936886,Guesthouses,,,true
32156338,38.01580386748928,-78.5104655447444,entire_home,Gorgeously Updated Home-Minutes to UVA,104,Oak Lawn Ct,2024-05-04,,24936886,Guesthouses,,,true
32158190,38.03604,-78.49207,private_room,Dowell Master Suite,,,2024-05-04,10,253769,Taneia,,,false
32188566,38.04447,-78.49334,entire_home,Wahoo Haven,,,2024-05-04,127,241525018,Lauren,,,false
3218982,38.04073042042281,-78.46568213767998,entire_home,Fabulous Terrace Level Apartment In City,921,St Charles Ave,2024-05-04,258,2006728,Lisa,,,false
32683856,38.02359697846611,-78.47931051439804,private_room,Guest suite w/own entrance in updated cottage,703,Bolling Ave,2024-05-04,525,18770922,Liz,,,false
32886731,38.02393,-78.472824,entire_home,Base Camp Belmont - 1BR w/laundry & private patio,,,,,,,,,false
33431471,38.04924022283414,-78.49213384938639,entire_home,Rugby Road Residential (RRR) near UVa and downtown,1219,Rugby Rd,2024-05-04,132,46077504,Julia,,,false
33481893,38.0373,-78.49364,private_room,The Thomas Suite,,,2024-05-04,14,253769,Taneia,,,false
33658833,38.041799212287344,-78.46354259277385,entire_home,Charming St. Charles,1012,St Charles Ave,2024-05-04,176,17945621,Audrey And Todd,,,false
34256214,38.05705360916169,-78.50111963435441,entire_home,"Barracks Rd Condo, Great spot for all JPJ events",1243,Cedars Ct,2024-05-04,300,119836567,C&P,,,false
34466238,38.01819953125052,-78.49524974439896,entire_home,Sunsets Overlooking C'ville,1021,Ridge St,2024-04-28,58,260170603,Whitney,,,false
35287055,38.0315504383731,-78.48964159497288,entire_home,Main Street Downtown Balcony Apartment,635,W Main St,2024-05-04,291,73230133,Peter,,,false
35822286,38.04844448159471,-78.49471712595916,entire_home,"Luxury Furnished Home Near UVA, Darden, Downtown",104,Buckingham Rd,2024-05-04,39,15139610,Matthew Gerber,Matthew Gerber,,true
36311511,38.063567862699394,-78.49867419942127,entire_home,The Comfy Ranch,102,Inglewood Ct,,,,,,,false
36521202,38.06114324276954,-78.46727475372475,entire_home,22Newly furnished just completed home in the city.,2216,Banbury St,2024-05-04,6,186023090,Uche Njoku,Uche Njoku,,false
36834796,38.06110646989452,-78.46732314743275,private_room,22Newly updated Ensuite Master Bedrm in the city.,2216,Banbury St,2024-05-04,6,186023090,Uche Njoku,Uche Njoku,,false
36857908,38.061167466824344,-78.46734348340512,private_room,22Private and cozy Bedroom in the city.,2216,Banbury St,2024-05-04,5,186023090,Uche Njoku,Uche Njoku,,false
36960823,38.01936510858554,-78.48433051347021,entire_home,"Chic & dog-friendly,big fenced yard, walk downtown",602,Stonehenge Ave,2024-04-18,56,80473852,Holly Hertberg,Kevin Davis,,false
37169812,38.06121245201629,-78.46732314721457,private_room,"22Private, cozy bedroom in the city.",2216,Banbury St,2024-05-04,5,186023090,Uche Njoku,Uche Njoku,,false
3730726,38.018905547840426,-78.5172218422534,entire_home,Close to UVA/Private Outdoor Entry,2605,Jefferson Park Cir,2024-03-07,218,,,,,false
37805618,38.03784,-78.47394,entire_home,North Downtown Walk-out Apartment,,,2024-02-13,,286132939,Dave,,,false
37861155,38.02650643357583,-78.50466545035763,entire_home,A Family & Dog Friendly Row Home,401,Valley Rd Ext,2024-02-26,24,156572539,Christy,,,false
37882577,38.02339,-78.48177,entire_home,Little Red Cville Cottage,,,2024-05-04,22,,,,,false
38308971,38.016124162723635,-78.50973530838644,entire_home,Light Filled Oasis Apartment,120,Oak Lawn Ct,2024-04-28,65,9542839,Tiffany,,,false
38344624,38.04396,-78.4694,private_room,"Spacious, private terrace level unit.",,,2024-05-04,89,264751010,Paul,,,false
38573765,38.023756741371095,-78.50030499990237,entire_home,Private Studio Basement Apt close to UVA,1428,Briarcliff Ave,2024-03-02,206,32087014,Jennifer Pack,Jennifer Pack,,false
39132420,38.03294,-78.47184,entire_home,Vintage Attic Apartment walk to Downtown Mall.,,,2024-04-28,134,300097901,Susan,,,false
39153205,38.02287,-78.5144,entire_home,Luxury tiny house in central Charlottesville,,,2024-05-04,130,72506333,Laura,,,false
39387594,38.01877376123676,-78.49152500641215,entire_home,Great Location - Gorgeous View (Close to UVA),138,Baylor Ln,2024-05-04,99,6968690,Mark,Mohammad Noshadiranzad,,false
39895030,38.03147,-78.50689,private_room,Oakhurst Inn: a boutique hotel at the University,,,2024-05-04,33,120285762,Oakhurst Inn,,,false
3997007,38.023277668458064,-78.47219473252738,entire_home,Private appartment in Charlottesville / Belmont,1100,Leonard St,2024-05-04,401,20722045,Francois,,,false
40121564,38.02911,-78.46571,entire_home,Meade Cottage,,,2024-05-04,228,272439731,Diane,,,false
40125467,38.01637338469491,-78.4764858651363,entire_home,"Greensview Apartment | Belmont, close to Downtown!",1602,Monticello Ave,2024-05-04,70,24936886,Guesthouses,,,false
40133437,38.027610241053786,-78.51715264956599,entire_home,Stadium House|Perfect House close to UVA!,2307,Price Ave,2024-05-04,30,24936886,Guesthouses,,,false
40147377,38.03628434190322,-78.47871289789344,entire_home,Zen Upscale Luxury in Downtown Charlottesville,107,Perry Dr,2024-02-23,,4572556,Katie,,,false
4024562,38.04937,-78.49559,entire_home,"Luxury 2BR Suite One Mile From UVa, Near Downtown",,,2024-05-04,37,15139610,Matt,,,false
40250625,38.04919,-78.49328,entire_home,Redbud Garden Suite,,,2024-05-04,206,7320404,Anne,,,false
40303671,38.01606109283873,-78.47247770087169,entire_home,Cozy Belmont Retreat,973,Rives St,2024-04-25,67,203329613,Kristin,,,false
40432357,38.050379105281976,-78.49936642788238,entire_home,Upscale Carriage House -  near UVA & Shopping,1895,Westview Rd,2024-05-04,127,14285858,Yates,,,true
40533478,38.02975,-78.4817,entire_home,The Wood Company Loft | Fully renovated modern apa,,,2024-05-04,59,41399220,Stay Charlottesville,,,false
40759154,38.03782736024619,-78.47826366473427,entire_home,★Large 2 Bedroom Private Apartment-Downtown★,622,McIntire Rd,2024-05-04,330,752170,Andrew McClure,Andrew McClure,,true
40795124,38.01934125435847,-78.48433356092127,entire_home,Spacious city home near everything with large yard,602,Stonehenge Ave,2024-05-04,31,80473852,Holly Hertberg,,,false
4085607,38.04298186580923,-78.45994329302317,entire_home,Cozy Cape Cod in Heart of Downtown,1104,Locust Ave,,,21192127,Whitney,,,false
41146727,38.06322210379898,-78.48106120730567,entire_home,The Dragonfly-a quiet & charming apartment,1647,Brandywine Dr,2024-05-04,217,115718681,Lynette Meynig,Lynette Meynig,,true
41192292,38.06326968097251,-78.48104106439175,entire_home,"The Hummingbird, a cozy quiet, 2 room apartment",1647,Brandywine Dr,2024-05-04,188,115718681,Lynette Meynig,Lynette Meynig,,true
41614683,38.02096,-78.50563,entire_home,Wahoowa!  Close to UVA!,,,2024-05-04,113,57868800,Anita (& Sonia),,Listing says has permit,false
42021058,38.02899106327884,-78.47847000835301,entire_home,Water Street Condo | Modern Downtown Retreat,550,E Water St,2024-05-04,48,41399220,Stay Charlottesville,,,false
42065169,38.01895,-78.4728,entire_home,Unique space in downtown Belmont,,,2024-05-04,155,333407652,Thomas,,,false
42131616,38.0304737638344,-78.48131487825273,private_room,The Jeff Hotel | Suite 204,110-112,E Main St,2024-05-04,92,24936886,Guesthouses,,,false
42243387,38.0437,-78.49797,private_room,Private Queen Room in Historic Home on edge of UVA,,,2024-05-04,137,6389624,Gregg,,,false
42245308,38.0304737638344,-78.48131487825273,private_room,The Jeff Hotel | Suite 201,110-112,E Main St,2024-05-04,118,24936886,Guesthouses,,,false
42246378,38.0304737638344,-78.48131487825273,private_room,The Jeff Hotel | Suite 202,110-112,E Main St,2024-05-04,89,24936886,Guesthouses,,,false
42250924,38.0304737638344,-78.48131487825273,private_room,The Jeff Hotel | Suite 203,110-112,E Main St,2024-05-04,103,24936886,Guesthouses,,,false
42251052,38.0304737638344,-78.48131487825273,private_room,The Jeff Hotel | Studio 304,110-112,E Main St,2024-05-04,94,24936886,Guesthouses,,,false
42251827,38.0304737638344,-78.48131487825273,private_room,The Jeff Hotel | Studio 303,110-112,E Main St,2024-05-04,116,24936886,Guesthouses,,,false
42252428,38.0304737638344,-78.48131487825273,private_room,The Jeff Hotel | Studio 302,110-112,E Main St,2024-05-04,135,24936886,Guesthouses,,,false
42252665,38.0304737638344,-78.48131487825273,private_room,The Jeff Hotel | Studio 301,110-112,E Main St,2024-05-04,140,24936886,Guesthouses,,,false
42758973,38.03324890136719,-78.4622802734375,entire_home,Dog Friendly/Gated Yard Close to Downtown Mall,1509,E High St,2024-05-04,8,329306210,Cville,,,false
42950362,38.03324890136719,-78.4622802734375,entire_home,Spacious Dog Friendly Close to Downtown and UVA,1509,E High St,2024-05-04,22,329306210,Cville,,,false
42951354,38.03324890136719,-78.4622802734375,entire_home,Bicycle Haven Close to Downtown & UVA,1509,E High St,2024-05-04,11,329306210,Cville,,,false
42951709,38.03324890136719,-78.4622802734375,entire_home,Garden Retreat Close to Downtown & UVA,1509,E High St,2024-05-04,10,329306210,Cville,,,false
43002555,38.03104,-78.46959,entire_home,"Bright, cheerful & comfortable home!",,,2024-05-04,31,7716773,Amanda,,,false
4342251,38.03219,-78.47137,entire_home,Patio Downtown Retreat,,,2024-05-04,143,22543310,Carolyn,,,false
43422636,38.04111423851004,-78.47056522328354,entire_home,Enderly - c1859 - English Basement Apartment,603,Watson Ave,2024-05-04,26,6298273,Chris,,,true
43756760,38.06870562825428,-78.49608273305415,entire_home,Enjoy the Cavalier Life-Uber to events & wineries!,134,Turtle Creek Rd,2024-03-07,20,32264149,Mignon,,,false
43849674,38.018290700346775,-78.47876282971868,entire_home,Best of Belmont-Modern and Cozy,905,Druid Ave,2024-05-04,74,19008392,Leslie Rach,Leslie Rach,,true
4391817,38.023677460820466,-78.48029332514389,entire_home,Downtown Top Floor Apartment (Reduced Weekdays),622,Bolling Ave,2024-05-04,710,19466929,Jason Lappa,Jason Lappa,,false
44012710,38.02312449626261,-78.46171296163023,entire_home,Private Suite in a Modern Downtown Farmhouse,124,Franklin St,2024-05-04,92,1725102,Julia And Ryan,,,true
4438519,38.02631374944487,-78.4770691751105,entire_home,City seclusion 10 Mins From UVa!,716,Levy Ave,2024-05-04,11,23038124,Giles,,,false
44517152,38.06644,-78.49638,private_room,Heart of the Stone-field/UVA. FullSize Bedroom #1.,,,2024-04-28,149,160726034,,,,false
44518324,38.06803,-78.49774,private_room,King bed room #2. Guest house,,,2024-03-07,150,,,,,false
44518867,38.06836,-78.49682,private_room,"Heart of stonefield,UVA & Downtown Queen Bedroom#3",,,2024-05-04,150,160726034,Alit,,,false
44540947,38.05039770257476,-78.49934667882499,entire_home,UVA Neighborhood Spacious Upper Floor,1895,Westview Rd,2024-05-04,14,14285858,Yates,,,true
44589010,38.04356,-78.49887,private_room,2 Private Rooms in Historic Home on edge of UVA,,,2024-05-04,6,6389624,Gregg,,,false
44644190,38.03648353614938,-78.4929752940603,entire_home,Otter Suite - Great place to stay & play!,339,10th St NW,2024-04-28,48,104891002,Virginia Ward,Virginia Ward,,false
44800051,38.02071643649656,-78.47575657856994,entire_home,Belleza Cottage |  Fast Wifi | Quiet Neighborhood Near Downtown,920,Blenheim Ave,2024-05-04,211,289159848,Blue Ridge BnB,,,false
45002559,38.067424831277215,-78.4972373250565,entire_home,Guest house Close to UVA/Downtown/Scott-Stadium.,2519,Hydraulic Road,2024-03-07,32,,,,,false
45073863,38.02811,-78.51718,entire_home,"UVa, Stadium, Downtown , Wineries & The Corner",2305,Price Ave,2024-05-04,112,363775545,Rachel,,,true
45178693,38.027601689508685,-78.51687895274367,entire_home,Historic Beauty and Walkable to Everywhere,,,2024-05-04,177,1637613,Monica,,,false
45366758,38.01521,-78.49932,private_room,Cozy Room with Balcony near Downtown & UVA.,,,2024-05-04,,17274235,Nazish,,,false
45409003,38.02325964689455,-78.49054112336275,entire_home,Apartment In Historical Building Close To Downtown,752,Ridge St,2024-05-04,12,329306210,Cville,,,false
45409075,38.0209033668466,-78.48449113650487,entire_home,"Sunny 3 bedroom Belmont home, pet friendly!",508,Druid Ave,2024-05-04,43,366892666,Adam,Zachary Blatter,,false
45517841,38.02347503477381,-78.47971045128857,entire_home,Avon House | Bright Large Family Home,804,Avon St,2024-05-04,99,368473385,Parvin,Yadollah Jamalreza,,true
45557208,38.02365,-78.48828,entire_home,"Warner House | Charming Home, walk Downtown",,,2024-03-02,12,24936886,Guesthouses,,,false
45652261,38.0361072353865,-78.47706978194148,entire_home,The Carriage House at Wine Cellar Circle,1614,Wine Cellar Cir,2024-05-04,106,44292656,Miranda,,,false
45736633,38.01863522039483,-78.51785838669184,entire_home,Terrace Level Apartment Walking Distance to UVA,2617,Jefferson Park Cir,2024-05-04,143,325211321,Roderick,,,false
45786351,38.04088000837864,-78.45963188714026,entire_home,This is a entire upstairs for up to 6 guests.,1028,St Claire Ave,2024-05-04,16,228444276,Chhabi,,,false
45829101,38.022581243059086,-78.52173088097169,entire_home,"Bluebird Bungalow in Frye Spring- 2 bed, 1 bath",233,Stribling Ave,2024-05-04,257,189230260,Charles,,,false
45864810,38.02078985934193,-78.47309248250005,entire_home,Open Heart - Walk to Downtown-no pet fee!,1215,Monticello Rd,2024-05-04,140,14858633,AnnMarie,,,false
45951228,38.01504,-78.48273,entire_home,Belmont Carriage House,,,2024-05-04,142,33938029,Kate,,,false
46067913,38.02906,-78.4925,entire_home,Private Oasis in Ideal Location,,,2024-05-04,10,1211743,Oliver And Natasha,,,false
46090884,38.02621380327592,-78.45415106925667,entire_home,3Bed/2.5Baths Townhome minutes to Downtown and UVA,350,Riverside Ave,2024-04-28,68,303182519,Mariam,,,false
46466293,38.04714600639895,-78.48792389611005,entire_home,Sunny studio apartment near UVA/Downtown,1608,Oxford Rd,2024-05-04,30,29756346,Robyn,,,true
46522622,38.037937011799634,-78.49287676678621,entire_home,The Metta Gem- A Stay w/ Compassion and Charm,406,10 1/2 St NW,2024-05-04,98,67044851,Heather,Ralph Newton,,true
46566255,38.0083208,-78.52533199999999,entire_home,Luxury Townhouse near Hospitals,,,2024-04-28,,6761970,,,,false
46578029,38.04259451471079,-78.49864140882194,entire_home,Private Cozy Twin in Historic Home on edge of UVA,622,Preston Place,2024-05-04,158,6389624,Gregg,,,false
46748654,38.02049899031673,-78.50147071429315,entire_home,Renovated 5BR Home Close to UVA/Downtown,715,Shamrock Rd,2024-05-04,14,247021521,Wilson And Mary,,,true
46767969,38.03818,-78.49172,private_room,The Metta Grotto- An All Embracing Warmth,406,10 1/2 St NW,2024-05-04,68,67044851,Heather,Ralph Newton,,true
46768941,38.02921505246559,-78.46642081411284,entire_home,"Clean, cozy guesthouse near historic downtown mall",400,13th St NE,2024-05-04,77,15558817,Rebekay Menning,Rebekay Menning,,true
46770910,38.037937011799634,-78.49287676678621,entire_home,The Metta Gem - An Entire Home w/ Loving Kindness,406,10 1/2 St NW,2024-05-04,52,67044851,Heather,Ralph Newton,,true
46966786,38.036135898718506,-78.47739130992633,entire_home,Wine Cellar Cottage | Walk to Downtown | Parking,611,Wine Cellar Cir,2024-05-04,94,289159848,Blue Ridge BnB,,,true
47114417,38.03555622454269,-78.4749536246446,entire_home,Private Apt in Historic C'ville Home (Garden Side),620,Park St,2024-05-04,79,375987994,Diane Auger,,,true
47123684,38.0416529014947,-78.47119173955572,entire_home,Park Street Cottage | 5 bdrm/4 bath | Sleeps 14,1007,Park St,2024-05-04,67,125147260,Amy,,,true
47372839,38.03752788829667,-78.46123093727559,entire_home,River Vista Cottage | 1 Floor | King+Queen Beds,1220,River Vista Ave,2024-05-04,56,193271821,Melina,,,true
47385957,38.02786390688428,-78.47158904009626,entire_home,City Loft Apt w/ roofdeck ~ 2 blocks to downtown,1116,E Market St,2024-05-04,45,64037151,Laura,Market Square LLC,,false
47520874,38.028200458278654,-78.50026078011979,entire_home,King Cottage | Near DT/UVA/Hospital | No Stairs,1200,King St,2024-05-04,206,289159848,Blue Ridge BnB,,,false
47785963,38.04314946865083,-78.48682370472255,entire_home,Beautiful Ranch Style Home - Close to Dtwn CVille!,1203,Greenway Rd,2024-05-04,21,24936886,Guesthouses,,,true
48088408,38.04837426125174,-78.49470016777926,entire_home,Stylish Luxe Smart Home Near UVA and Downtown Mall,104,Buckingham Rd,2024-05-04,,15139610,Matthew Gerber,Matthew Gerber,,true
48096352,38.03304787338851,-78.47076760283534,entire_home,The Pop Inn | Perfect for your group getaway,515,Locust Ave,2024-05-04,113,15601209,Becky,,,false
48165048,38.0277779183471,-78.48949108344088,entire_home,Delightful loft cottage in the heart of CVille,420,Oak St,2024-05-04,119,327405852,Freeman,,,true
48505649,38.02883,-78.45883,entire_home,Lovely 2 bed 2 bathroom condo close to UVA,,,2024-05-04,25,342078082,Sarah,,Riverbend Dr.,false
48681240,38.04320961661774,-78.46464551133053,entire_home,Holmes House,1004,Holmes Ave,2024-05-04,75,392736875,Rachel,,,false
48742258,38.06717,-78.49921,private_room,"Steps from Stonefield, gorgeous, luxurious condo",,,2024-05-04,,227743001,Gwen,,,false
48832211,38.045131257894056,-78.4616965820331,entire_home,Private 2BR Apt Near Downtown Charlottesville,1110,Holmes,2024-04-18,37,301734836,Barrett,,,false
48995354,38.02821000134546,-78.48680730502656,entire_home,"The Cherry Tree, downtown estate, 8 parking spaces",401,Ridge St,2024-05-04,114,230276571,Andrew & Stella,,,false
49052307,38.06741190291017,-78.49721369194147,entire_home,Newly Renovated Woodland Retreat,2519,Hydraulic Rd,2024-03-07,,32264149,Mignon,,,false
49062881,38.02384,-78.45835,entire_home,"The Metal House, 3 miles from UVA Grounds",,,2024-05-04,,385541797,Lindsey,,,false
49062964,38.02459412410818,-78.4799566289616,entire_home,Renovated Bright and Modern Downtown Farmhouse,618,Monticello Ave,,,395696125,Wes,,,false
49122601,38.01379,-78.46969,private_room,"C’ville “Suite Spot”- Private, Comfy, Min. from DT",,,2024-05-04,70,105239578,Kathleen,,,false
49151790,38.045926687127405,-78.50057057697151,entire_home,Beautiful home on tree-lined street steps from UVA,1845,Fendall Ave,2024-05-04,7,20974929,Kristin,,,false
49178848,38.025316823110586,-78.50918603324557,entire_home,0.5 mile to Scott Stadium! | Comfy Upper-Level Apt,115,Stratford Ct,2024-05-04,47,396691314,Jake,,,false
49179366,38.06882,-78.46622,private_room,115 Updated City home. 2.9 miles from UVA hospital,,,2024-05-04,8,186023090,Uche,,,false
49232223,38.06875,-78.4686,private_room,115Renovated city home. 2.9 miles to UVA hospital.,,,2024-05-04,7,186023090,Uche,,,false
49386430,38.05675,-78.49038,entire_home,Close to UVA/Downtown - for Large Groups,,,2024-05-04,111,6968690,Mark,,,false
49400258,38.03019675756487,-78.48042346456354,entire_home,Charlottesville Dreamin' | Downtown | Parking,213,E Water St,2024-05-04,232,289159848,Blue Ridge BnB,,,false
49403790,38.02157,-78.47134,entire_home,"Belmont Private Suite, 1/2 mile to Downtown Mall",,,2024-05-04,99,6807353,Ashley,,,false
4950655,38.02366382957551,-78.46122481038692,entire_home,Woolen Mills garden apartment /private,1610,E Market St,2024-05-04,252,25517690,Betty Jo Dominick,Betty Jo Dominick,,false
49562253,38.03021274343712,-78.48361852949444,entire_home,NEW Modern Condo on the Downtown Mall,218,Water St,2024-05-04,68,155113249,Isaac,,,false
49604375,38.02113168644316,-78.48147585435056,entire_home,Belmont Bungalow 1/2 Mile to Downtown!,1104,Avon St,2024-04-28,63,331780665,Nick Madden,Nick Madden,,true
4961336,38.02696407791368,-78.51825003639158,entire_home,Azalea Cottage near UVa,2318,Price Ave,2024-05-04,56,19245350,Gail,,,false
49732283,38.02638416364941,-78.47810959619372,entire_home,⋆Best of Downtown & Belmont in Historic Home/ 2bd⋆,415,Avon St,2024-05-04,325,401095529,Jason Parham,Jason Parham,,false
49747869,38.0364776281266,-78.47745740557367,entire_home,Downtown Mall Architecturally Designed House,700,Northwood Ave,2024-05-04,75,24998485,MIchal,,,false
49774522,38.04363057141766,-78.51912163522202,entire_home,pink cottage @ locust grange,365,Twin Sycamores Ln,2024-05-04,118,400135637,Eli,,,false
49905821,38.02860141542229,-78.48898006430335,entire_home,Guest Suite in heart of downtown Charlottesville,308,5th St SW,2024-05-04,4,26818023,Margo Murray,Margo Murray,,true
49921758,38.02409451886398,-78.47557672211481,entire_home,Southern Lux Apartment - 30+ night in Dtwn Belmont,829,Belmont Ave,2024-03-02,8,24936886,Guesthouses,829 Belmont LLC,,false
49922001,38.02397834295466,-78.47571439160347,entire_home,Fairytale Loft | 1 bed/1 bath in Downtown Belmont,829,Belmont Ave,2024-05-04,31,24936886,Guesthouses,829 Belmont LLC,,false
49982659,38.06889,-78.49239,entire_home,"Vaulted Ceilings, Private Balcony, Near Everything",,,2024-05-04,17,403083793,Brian,,,false
50006134,38.02397830907434,-78.47568669382483,entire_home,Pharmacy Apartment | 30 + Rental in Dtwn Belmont,829,Belmont Ave,,,24936886,Guesthouses,829 Belmont LLC,,false
50021011,38.031877656647,-78.50621967850809,entire_home,1 Bedroom Apartment with Patio & Kitchen,122,Oakhurst Cir,2024-05-04,4,120285762,Oakhurst,,,false
50178595,38.03478376169526,-78.48219648952677,entire_home,Killer Downtown Efficiency,415,McIntire Rd,2024-05-04,129,3033967,Charles,,,false
50207514,38.03184657014432,-78.50620574925418,entire_home,Quaint 1 Bedroom Steps from UVA Campus,122,Oakhurst Cir,2024-05-04,,120285762,Oakhurst,,,false
50291776,38.02400155150974,-78.47575643105569,entire_home,Retro Apartment | Lux Extended Stay in Belmont,829,Belmont Ave,,,24936886,Guesthouses,829 Belmont LLC,,false
50501829,38.02347971358428,-78.46100480210936,entire_home,Sun Cottage in Downtown Charlottesville,1612,E Market St,2024-04-28,94,27138426,Greg Gelburd,Greg Gelburd,,false
50674332,38.05039221952178,-78.49930458701867,entire_home,Heart of Cville: Woodview near UVA,1895,Westview Rd,2024-05-04,32,14285858,Yates,,,true
50813882,38.04554,-78.4926,private_room,"Near UVA | Private Queen Bed & Bath, Self Check-In",,,2024-05-04,75,10492139,Diane,,,false
50931114,38.01474,-78.46939,entire_home,Lovely small studio with free parking space.,,,2024-05-04,14,111545158,Irene,,,false
50973473,38.07441542191085,-78.46741316968718,entire_home,Mai-An's Garden Refuge,2401,Northfield Rd,2024-05-04,49,400035616,Quang,,,false
51103791,38.02917052695772,-78.46382110700459,private_room,Queen Room Near Downtown,413,Fairway Ave,2024-05-04,43,10078633,Raven N Flame,,,true
51120572,38.02759,-78.46372,private_room,Room with Full Bed - Walk to Downtown,,,2024-05-04,48,10078633,Raven N Flame,,,false
51147596,38.0677,-78.46714,private_room,115 Cozy bedroom in a renovated city home.,198,Denice Lane,2024-05-04,8,186023090,Uche Njoku,Uche Njoku,,false
51189642,38.04222,-78.49915,entire_home,The Venable - A Gorgeous Home in the Heart of UVA,626,Preston Pl,2024-05-04,66,57938584,Lisa,,,true
51225982,38.05134042020064,-78.48270926671378,entire_home,The House on Rose Hill - Downtown C-Ville Living,1620,Rose Hill Dr,2024-02-13,,44292656,Miranda,,,false
51417755,38.03450042900616,-78.47527819905345,entire_home,"Downtown 3 BR, just two blocks to mall w/ Hot tub",534,Park St,2024-05-04,81,24813991,Seth,,,true
51469389,38.03998,-78.46189,entire_home,LuxuryOnLocust. 1 mile to downtown.,,,2024-03-07,135,83039104,Adele,,,false
51531285,38.017353177186116,-78.51317569788823,entire_home,The Gardener’s Cottage,105,Monte Vista Ave,2024-05-04,95,342758228,Joshua,,,true
51564626,38.02118045184461,-78.51910434852742,entire_home,"Cheerful 4-bedroom Home, Walking Distance from UVA",209,Huntley Ave,2024-05-04,22,55528547,Wahid,,,false
51573516,38.024983983392346,-78.47506549549529,entire_home,The Douglas Home | Steps to attractions | Parking,227,Douglas Ave,2024-02-26,,,,,,false
51574902,38.03551971488887,-78.47486971433878,entire_home,Private Apt in Historic C'ville Home (Lane Side),620,Park St,2024-04-28,62,375987994,Diane Auger,,,true
51584866,38.02660972299238,-78.47527795847486,entire_home,"Belmont Farmhouse | Huge, New, Walk to Everything!",127,Goodman St,2024-05-04,45,935461,Becca,,,false
51693148,38.03493,-78.46544,entire_home,Low Key Cozy,,,2024-05-04,24,172925744,Kim,,,false
51826264,38.04457570876556,-78.48417080785855,entire_home,50's Cape Cod close to UVA/Downtown/ Barracks rd,1161,Rose Hill Dr,2024-05-04,68,419846477,Ryan Martin,Ryan Martin,,false
51888181,38.02472,-78.46054,entire_home,Charming one room cottage with parking.,,,2024-05-04,44,121926169,Catherine,,,false
51937784,38.040359246573416,-78.49410407979367,entire_home,Backyard relaxation in the center of Cville,703,12th St NW,,,81522559,Annie,Anne Perkins,,false
52383173,38.06579,-78.47766,entire_home,"Vaulted Ceilings, Private Balcony, Near Everything",,,2024-05-04,91,404763233,Jennifer And Bob,,,false
52408208,38.031906977181535,-78.46355793622674,entire_home,The High Note | Craftsman Cottage | Fiber Internet,536,Meade Ave,2024-05-04,280,161735737,Matt,,,false
52457378,38.018240700845716,-78.51311739432074,entire_home,Cozy Home within walking distance to Scott Stadium,2601,Jefferson Ave,2024-05-04,30,121851717,Chassidy,,,false
52666860,38.02406071307347,-78.47573497291883,entire_home,French Cottage Apt | 30+ nights in Dtwn Belmont,829,Belmont Ave,2024-04-18,4,24936886,Guesthouses,829 Belmont LLC,,false
52667045,38.02365,-78.4768,entire_home,Elegant Apt | Lux Extended Stay in Belmont!,,,2024-03-07,7,24936886,Guesthouses,,,false
52674667,38.032475,-78.454956,entire_home,"Spacious 2 BR 2 BA Modern Condo, Easy Location",,,,,,,,,false
52683091,38.01733496819969,-78.50910620100457,entire_home,Willard Cottage 3 BR w/ huge yard min from UVA,2530,Willard Dr,2024-02-26,21,37051577,Peter,,,false
52752310,38.01498,-78.48009,entire_home,Charming New-Build Belmont Apartment,,,2024-05-04,12,,,,,false
53169512,38.02346607681573,-78.47747116828785,entire_home,Yellow House| 2 BR Cottage Dtwn Cville/Belmont,802,Monticello Ave,2024-05-04,48,24936886,Guesthouses,,,false
53202512,38.026135801075995,-78.47901115947613,entire_home,Hinton House - A Perfectly Located Downtown Home,612,Hinton Ave,,,44292656,Miranda,,,true
53212810,38.03850280258797,-78.45848097846596,entire_home,Lovely 2 bedroom townhouse with parking,1014,Coleman St,2024-05-04,20,427281213,Guadalupe Sosas,Guadalupe Sosas,,true
53215192,38.03328099700962,-78.4626730161288,entire_home,Restful Studio Close To Downtown & UVA Hospital,1511,E High St,2024-05-04,3,329306210,Cville,,,false
53220686,38.06604759902862,-78.50378721531233,entire_home,Centrally located for all thing Charlottesville!,204,Georgetown Rd,,,430879092,Meghan,,,false
53230241,38.03328575035277,-78.46257913885621,entire_home,Peaceful Oasis Close To Downtown and UVA Hospital,1511,E High St,2024-05-04,6,329306210,Cville,,,false
53442549,38.02022531055858,-78.4819047828037,entire_home,"Altavista House - Renovated, Charming, & Walkable",700,Altavista Ave,2024-05-04,33,44292656,Miranda,,AirBnMe LLC - Miranda,false
53456078,38.04397129831941,-78.48816406539248,entire_home,"Quiet & family friendly, 1 mile to UVA & downtown",1611,Hardwood Ave,2024-05-04,30,432856934,Natalie,,,true
5352948,38.020908187875456,-78.47308174937115,entire_home,"Belmont Views - Beautiful, Spacious Apartment",1215,Monticello Rd,2024-05-04,302,14858633,AnnMarie,,,false
53544297,38.042150762809705,-78.49077979520283,entire_home,"Preston Lofts-Spacious, Modern, Central, Green",1110,Preston Ave,2024-05-04,39,37447928,Tonya,,,true
53600725,38.02418105833419,-78.49543616541999,private_room,Room A in a Townhouse Close to UVA Hospital,710,Orangedale Ave,2024-04-28,148,134096167,Jie,,,true
53611903,38.02418105833419,-78.49543616541999,private_room,Room B in a Townhouse Close to UVA Hospital,710,Orangedale Ave,2024-05-04,96,134096167,Jie,,,true
53618884,38.02418105833419,-78.49543616541999,private_room,Room C in a Townhouse Close to UVA Hospital,710,Orangedale Ave,2024-05-04,91,134096167,Jie,,,true
53631964,38.02418105833419,-78.49543616541999,private_room,Room D in a Townhouse Close to UVA Hospital,710,Orangedale Ave,,,,,,,true
53736269,38.07595,-78.49099,entire_home,Cozy Apartment for all things Charlottesville,,,2024-05-04,,128980157,Joanne,,,false
53780086,38.05591011610785,-78.48239140477632,entire_home,Charming spacious cottage centrally located,1610,Meadowbrook Heights Rd,2024-05-04,47,99142028,Ashley,,,true
53808028,38.06893910586517,-78.4699822908606,entire_home,Wakefield Ct | Private Parking spots | Fast WiFi,101,Wakefield Rd,2024-05-04,91,301355938,Maria And Sinisa,,,false
53981835,38.03965,-78.51371,entire_home,"Cavalier Cottage-3 BR/Bath, Calm Amid UVA Grounds",,,2024-05-04,101,120808305,Kelly,,,false
54131672,38.03604723438603,-78.50022384720188,entire_home,"Best Location for UVA, Renovated Historic 2BDRM",11,Elliewood Ave,2024-05-04,46,25615234,Ryan,,,false
54277137,38.041738291120865,-78.45994667289352,entire_home,Downtown Cville Apartment with Private parking.,1036,Martin St,2024-03-07,68,401026483,James,,,true
54305101,38.02944286983294,-78.49698118211026,entire_home,"Bright & cozy home- 3 blocks from UVA, walk to DT!",1001,King St,2024-05-04,50,60128012,Erin,,,true
54398612,38.03355,-78.47217,entire_home,Light-filled 2 bdrm/1 baTop Floor Apt w Balcony,,,2024-04-18,7,15601209,Becky,,,false
546192240445152764,38.02311668395411,-78.47692322226635,entire_home,Art lovers dream! Spacious private 2 BR apartment.,808,Monticello Ave,2024-05-04,49,229455166,Sigrid,,,false
546974217242473380,38.0442202043225,-78.49826683433042,entire_home,Lovely home for Graduation-Walk to the Rotunda!,1808,Rugby Pl,2024-03-07,3,10361745,Hope,,,true
549886189115774619,38.01522853329825,-78.50955513019403,entire_home,THE INTERNATIONAL HOUSE,110,Harris Road,2024-05-04,55,228444276,Chhabi,,,false
553559268479850123,38.0372579731364,-78.45926181386332,entire_home,Belleview Retreat | 5 Bedroom Home Near Downtown,1304,Belleview Ave,2024-05-04,103,443266720,Eliot,Benjamin Beitzel,,false
556528789347402759,38.03305542924007,-78.4701843087263,entire_home,UVA Graduation - Home in DT Neighborhood,528,Locust Ave,2024-03-07,,,,,,false
557303932443496627,38.03182,-78.48143,entire_home,Penthouse Apartment Overlooking Downtown Mall,,,2024-05-04,34,24936886,Guesthouses,,,false
561466400056996244,38.015743242031284,-78.50731344452615,entire_home,Kersey's Cottage at 204 an Airbnb + so much more!,204,Harris Road,2024-05-04,49,444892984,Lisa,,,false
563901738867163497,38.02865,-78.47238,entire_home,"Downtown Sunny 2BrApt~lots of space, yard, parking",,,2024-05-04,138,64037151,Laura,,,false
567553823138749792,38.02270014161668,-78.5182214471338,entire_home,Studio Basement Apartment! 1 week minimum.,138,Stribling Ave,2024-05-04,8,284465424,Danielle,,,false
572545538342975862,38.06356,-78.47608,entire_home,Peaceful family home 5 min from downtown and UVA,,,2024-05-04,,31331565,Laura,,,false
573042791480238063,38.04155,-78.46388,private_room,"Cheerful, bright Charlottesville studio & bath",,,2024-02-22,,,,,,false
573135287369337234,38.01985,-78.49644,entire_home,Convenient to it All~1 Mi to UVA & Downtown Mall!,,,2024-04-25,48,55803318,Margaret,,,false
577615788995501215,38.0302353228263,-78.49358458161407,entire_home,NEW Tucked Away in Central C-ville.,805,Nalle St,2024-05-04,49,4791446,Jeff,,,true
578775027596109350,38.021561466396946,-78.49238548756678,entire_home,No Chores Close Walk to UVA / Downtown Mall,821,Ridge St,2024-05-04,28,30385264,Paulette & Tony,,,false
581756909129361577,38.02400577746773,-78.47578325310984,entire_home,Garden Apt | Lux Extended Stay in Downtown Belmont,829,Belmont Ave,2024-02-23,,24936886,Guesthouses,,,false
581762401247689835,38.0240417193731,-78.47567057674836,entire_home,Ode 2 Cville| Lux Apartment in Downtown Belmont,829,Belmont Ave,2024-03-07,,24936886,Guesthouses,,,false
581767571328964811,38.02401904724043,-78.47568778990625,entire_home,Blacksmith Apt | Lux Extended Stay in Belmont,829,Belmont Ave,2024-04-18,9,24936886,Guesthouses,829 Belmont LLC,,false
581930515897663005,38.0593665918227,-78.47250995636986,entire_home,"Spacious Modern Retreat, minutes from Downtown",1500,Jamestown Dr,2024-05-04,22,7728401,Emily,,,false
582001573097772203,38.02371126335665,-78.50026010517048,entire_home,Single family brick ranch house near UVA,1428,Briarcliff Ave,2024-05-04,,32087014,Jennifer Pack,Jennifer Pack,,false
586876075236988403,38.03455187985652,-78.47956481409543,entire_home,"Historic Top Floor Suite, 2 Bedrooms Dble Bathroom",504,1st St N,2024-05-04,21,138769224,Genevieve,,,true
586897838090870936,38.02492,-78.47436,entire_home,Casa Verde- Cozy suite in the heart of Belmont!,,,2024-05-04,39,82188010,Katie,,,false
591008075939052646,38.01475058602839,-78.47310248700913,entire_home,The Micah - 2 bedroom apt with private back deck.,1301,Knoll St,2024-05-04,56,16381222,Steven Braden,Steven Braden,2 in Fort Meyers FL,false
591438154736560238,38.029353996579616,-78.487570148388,entire_home,"Modern cottage - walk downtown, UVA hosp & campus!",223,4th St NW,2024-04-25,48,57000389,Marissa,WIlliam Wood,,false
5954234,38.029954462977635,-78.4925093465842,entire_home,New Custom Home in Downtown C'Ville,723,Nalle St,2024-05-04,250,16087194,Tj,,,false
600056193685666644,38.01475363626049,-78.47316234934469,entire_home,Eden  - perfect stay in lower Belmont!,1301,Knoll St,2024-04-28,38,16381222,Steven Braden,Steven Braden,2 in Fort Meyers FL,false
6024395,38.025892609950205,-78.47649749449413,entire_home,Charming Belmont / Downtown cottage,330,Monticello Rd,2024-05-04,171,1312480,Steve,,,false
608097103135429985,38.03482011903709,-78.4727652562467,entire_home,"Modern Downtown Apt, walk to Mall, near UVA",609,Kelly Ave,2024-05-04,45,454920279,Leigh & Adrien,,,false
608706356328558802,38.023469714825886,-78.47462428661704,entire_home,Grove Apt | 30+ nights in Dwtn Belmont,915,Belmont Ave,2024-03-07,6,24936886,Guesthouses,,,false
609245145095265349,38.02349911027965,-78.47461944004654,entire_home,Service Station Apt - Extended Stay-Dtwn Belmont,915,Belmont Ave,2024-03-02,4,24936886,Guesthouses,,,false
6106699,38.034620478014496,-78.47128429342801,entire_home,1BD Minutes from Downtown and UVA,620,Lexington Ave,2024-05-04,320,20781680,Matt,,,true
610898269496115329,38.02533238452422,-78.47566459358487,entire_home,"6 min Walk to Downtown Mall, Rustic Bohemian Digs!",150,Goodman St,2024-04-25,75,,,,,false
619010542886904596,38.016118646501916,-78.4828299805141,entire_home,"Bright, Modern Home Near Downtown C-Ville & UVa",1614,Rialto St,2024-03-02,29,195221,Aarti,,,true
622381490723059929,38.03366594834737,-78.48259935713513,private_room,1-bedroom en suite bath in villa - great location!,400,High St,2024-05-04,17,10955788,Beth,,,false
622437514617860093,38.03366594834737,-78.48259935713513,private_room,Enjoy one bedroom/bath with private entrance,400,High St,2024-05-04,12,10955788,Beth,,,false
623725880370113770,38.044575,-78.484138,entire_home,"""The Fonz"" Adorable 1 Bedroom carriage house",1161,Rose Hill Dr,2024-05-04,9,419846477,Ryan Martin,Ryan Martin,,false
625204383547327920,38.02142698610542,-78.49613831917497,entire_home,"5 min to Downtown C'ville, 3b/2b Comfortable!",619,Bailey Rd,2024-05-04,10,31806596,Susan Gooding,Susan Gooding,,false
628218190832303955,38.01614,-78.4849,entire_home,Modern Studio with off-street parking in Belmont,,,2024-05-04,,334130592,Jacob,,,false
629150675952159686,38.010612,-78.511497,entire_home,Cozy Downstairs apartment,,,2024-05-04,,100834480,Adam Navone,,,false
633805699139193981,38.03081,-78.48197,entire_home,The Gryphon - 2 BR 2 BA on Downtown Mall,,,2024-05-04,20,41399220,Stay Charlottesville,,,false
638604181167187786,38.061047,-78.484482,entire_home,Cheerful and Centrally Located 2-bedroom Home,,,2024-05-04,10,1130761,Susan Kalergis,,,false
639704807564568432,38.01632,-78.47454,entire_home,Two Bedroom Home With Views of Belmont,,,2024-05-04,9,,,,,false
640696305350613036,38.022790850707224,-78.48262106325899,entire_home,"The Matias - two bed, one bath, walk to downtown",921,6th St SE,2024-05-04,59,16381222,Steven Braden,Steven Braden,2 in Fort Meyers FL,false
644094739593601642,38.020460568632856,-78.48856667977167,entire_home,"New Luxury Modern Farmhouse, Downtown C'Ville",207,Hartmans Mill Rd,2024-05-04,37,463055373,Reginald,,,false
644959552686374379,38.03303,-78.48301,private_room,Spacious bedroom with private entrance,,,2024-05-04,22,10955788,Beth,,,false
6467552,38.04277,-78.48633,entire_home,Studio Apartment near Downtown/UVA,,,2024-05-04,242,33785119,Bridget & Ian,,,false
649836088021674698,38.02655912774965,-78.47588826671169,entire_home,"Belmont Cottage | Downtown, Cozy, & Peaceful!",214,Little Graves St,2024-05-04,4,935461,Becca,,,false
650763238584083723,38.02454,-78.48752,entire_home,Casa Abogada! Swanky & a view!,120,Penick Ct,2024-05-04,9,37507596,Michael,Kristen Fricchione,,true
652807042219837469,38.03366594834737,-78.48259935713513,private_room,Private one bedroom queen bed en suite bathroom,400,High St,2024-05-04,25,10955788,Beth,,,false
654961132802995841,38.03252500074491,-78.46628310000993,entire_home,Charlottesville Beauty Close to Everything!,1312,Poplar St,2024-05-04,47,104687949,Larissa,,,false
655001194958094968,38.0355,-78.49512,entire_home,Gorgeous & Airy Custom Downtown Dream Home,,,2024-05-04,15,44292656,Miranda,,,false
658691330513719800,38.04366,-78.46864,entire_home,Rustic Casita -at the heart of CVILLE <3,,,2024-05-04,143,265319999,Betsy,,,false
659334933051050364,38.02821,-78.48038,entire_home,Vitalina downtown studio,,,2024-03-02,74,,,,,false
666011166858095094,38.02801,-78.50237,entire_home,Cozy 2 bedroom 2 bath home near UVA grounds,,,2024-02-25,41,,,,,false
666064890783209120,38.0346498395886,-78.49231367872589,entire_home,Page Place: Midterm 31+ Day Stays,905,Page St,2024-05-04,36,36469809,Jamie,,,false
6674438,38.04070551939433,-78.46239862697493,entire_home,Luxury cottage in Downtown C-Ville,1012,Locust Ave,2024-05-04,463,8363563,Price,,,true
668697086602272537,38.0445625,-78.5013649,entire_home,5 Bedroom Charmer - Walk to UVA!,,,2024-04-28,,49587786,Scott Wrightson,Scott Wrightson,,false
670157789978942821,38.02173,-78.51174,entire_home,Calma Azul ~ A Retreat in the Heart of C-Ville,,,2024-05-04,36,44292656,Miranda,,,false
670371238292145599,38.06670740772929,-78.49898614166248,entire_home,"King Bed, Grill, Fire-pit, 10 downtown, 5 UVA",2441,N Berkshire Rd,2024-05-04,45,456167178,Master Suites,,,false
6716761,38.05734,-78.47099,private_room,"Sunny, Charming room w/ private bathroom",,,2024-05-04,95,4375264,Maria C,,,false
673302,38.02973307958931,-78.490134257316,entire_home,Adorable Butternut Cottage!,312,7th St SW,2024-05-04,265,3416852,Charlotte Drummond,Charlotte Drummond,,true
674753625415781457,38.05720275390403,-78.49153301487337,entire_home,"4 Mins to UVA Grounds, Peaceful 3BR House",,,2024-05-04,11,404763233,Jennifer And Bob,,,false
676708145581866943,38.02973,-78.48568,entire_home,"Studio with 1 King, Sofa Bed",,,2024-05-04,18,454577805,Residence Inn Charlottesville,,,false
676708672871317949,38.03046,-78.48602,entire_home,"One Bedroom with 1 King, Sofa Bed at Residence Inn Charlottesville Downtown",,,2024-05-04,,454577805,Residence Inn Charlottesville,,,false
686964335504690193,38.014563,-78.5124615,entire_home,"Cozy Basement Apt, Walk to UVA",,,2024-05-04,15,26022252,Ryan,,,false
689298324126544219,38.01898,-78.51108,entire_home,Cheerful 2-Bedrooms home in UVA Neighborhood.,,,2024-05-04,,474053415,Damchoe Gyaltsen,Damchoe Gyaltsen,,false
690268317492051143,38.01517,-78.51574,entire_home,Newly renovated one bedroom!,,,2024-05-04,13,157380681,Deborah Barry,Deborah Barry,,false
692489808687800723,38.02279256735546,-78.48264898128667,entire_home,"The Ari - Belmont 2 bed, 1 bath, walk to downtown",921,6th St SE,2024-04-28,24,16381222,Steven Braden,Steven Braden,2 in Fort Meyers FL,false
694842585387729677,38.02734787575216,-78.51906792477077,entire_home,The Nook at UVA -super quiet & right on Grounds!,119,Piedmont Ave N,2024-05-04,36,78874442,Anastasia,,,false
6967254,38.04368,-78.45591,entire_home,Suite w/Pvt. Entrance+Screen Porch.,,,2024-05-04,1019,7053776,Jen Downey,Jen Downey,,false
698321819774407074,38.05628188126209,-78.47564056572786,entire_home,Greenbrier Getaway,,,2024-05-04,31,25367074,Erin,,,false
699993648283250117,38.02437,-78.46049,entire_home,Tranquil Woolen Mills Garden Apartment,,,2024-05-04,,386930155,David,,,false
705073961831078679,38.02515647249777,-78.50777967638723,entire_home,"Cheerful 3 bedroom home, walk to UVA/Stadium",243,Shamrock Rd,2024-05-04,24,465636799,Joshua Bare,James Armstrong,BnBonVoyage.com,true
706550091633937542,38.03808,-78.47688,entire_home,North Downtown Maple - 3 Bed/2 Bath Dtwn Cville,,,2024-05-04,19,24936886,Guesthouses,,,false
7086685,38.02801162319691,-78.46774530906002,entire_home,Cheerful Cottage,1214,E Jefferson St,2024-05-04,398,28498879,Chris,,,true
709953746628078357,38.023993985513535,-78.46118765147412,entire_home,Available for Graduation 2024! Remodeled 4 bdrm,1609,E Market St,2024-05-04,5,2733434,Katie Cleary,Katie Cleary,,false
710888861667894189,38.02499007141666,-78.51197794039706,entire_home,Hill Street House walk to UVA Stadium/Fry's Spring,2217,Hill St,2024-05-04,44,452695413,Airkey,,,false
711047572570151447,38.025249388347724,-78.46401075861787,entire_home,Boutique 2-bed w/ off-street parking,1341,E Market St,2024-05-04,19,28515227,Thomas Kapp,,,false
712472644543219999,38.0206,-78.46904,entire_home,Cool 4-bedroom townhome walkable to restaurants,,,2024-04-18,68,,,,,false
713916694001144609,38.0159823366665,-78.48348560663297,entire_home,Belmont Beauty: 1 mile to DT Mall & 2 miles to UVA,118,Blincoe Ln,2024-05-04,25,234049395,Caroline Wilke,Caroline Wilke,,false
719541359310087011,38.03036,-78.49948,entire_home,Stunning Modern Home~ 2min drive to UVA Campus,,,2024-05-04,50,108937443,Basleal,,,false
720145076385732784,38.02355925378388,-78.50030883395655,entire_home,"Family-friendly home; walk to UVA, park for free.",1430,Briarcliffe Ave,2024-05-04,,138800968,Shelby Sender,Shelby Sender,,false
720348766508535905,38.06453,-78.46717,entire_home,Cozy home in quiet neighborhood,,,2024-05-04,32,32845777,Maggie,,,false
722022779743655554,38.03751786719442,-78.46548791875671,entire_home,Long Street Cottage | 5 bdrm/3.5 bath,1006,Long St,2024-05-04,9,125147260,Amy,,,true
723981062304581833,38.04974,-78.50056,entire_home,Rugby Road Retreat - walking distance to UVA.,1878,Westview Rd,2024-05-04,,116840345,Alastair Reilly,Alastair Reilly,,false
723987600978858467,38.02777395331055,-78.51865742149494,entire_home,Spacious 5 bedroom home near stadium + central UVA,124,Piedmont Ave N,2024-05-04,27,75412768,Channa,,,false
724818828074752560,38.02059,-78.48213,entire_home,Cozy cottage-15min walk to historic downtown mall!,,,2024-05-04,43,33602201,Tashi Druknya,Tashi Druknya,,false
727785046430542163,38.03005971591411,-78.49425313765921,entire_home,Spacious and Modern Home | 5BR Near Downtown/UVA,856,Nalle St,2024-05-04,31,10437935,Donte',,,true
728064804483511459,38.01783641186227,-78.50724734271877,entire_home,"Newly-renovated 5BR home near UVA, Downtown, i64",421,Mosely Dr,2024-05-04,44,231661195,Hunter,,,false
735339421905185830,38.0324,-78.50571,entire_home,Lovely 1 Bedroom Apartment with Pool Access,,,2024-05-04,,120285762,Oakhurst,,,false
737512388321188321,38.02368,-78.46002,entire_home,Monticello Vista - A Woolen Mills Retreat,,,2024-05-04,,24936886,Guesthouses,,,false
743492840198362058,38.05158616499965,-78.46081202473982,entire_home,Charlottesville Haven: Stylish Home Near Downtown!,1125,Pen Park Ln,2024-04-18,11,484658725,Jun,,,false
744356285915736743,38.04495,-78.48212,entire_home,Cheerful 3 bedroom home with indoor fireplace,,,2024-05-04,40,429977293,Nicole,,,false
748452164488640110,38.02617192277097,-78.47556930510508,entire_home,Artistic Belmont home—walk downtown,135,Goodman St,,,275404744,Courtney,,,false
762275,38.029654424795346,-78.46425163986476,entire_home,Treehouse on Stilts,437,Fairway Ave,2024-05-04,346,57802,Leora,,,false
762997745246514379,38.04347434642468,-78.48715712307803,entire_home,Organic retreat 5 minutes from downtown Cville,,,2024-02-13,,45947411,Colette Blount,Colette Blount,,false
770202579534357164,38.02184389607383,-78.48489899725988,entire_home,Little Blue Sunshine,400,Robinson Pl,2024-05-04,34,45198992,Ray,,,true
771110401747881475,38.066721661631654,-78.49903308029896,entire_home,"Grill, Fire-pit, 10 downtown",2441,N Berkshire Rd,2024-05-04,7,456167178,Master Suites,,,false
771842063098583505,38.03468791263644,-78.4608788539673,entire_home,Studio 1 W/Mountain Views,1329,Riverdale Dr,2024-05-04,,329306210,Cville,Venice Property LLC,,false
774005,38.02805674639535,-78.49240949727061,entire_home,Central & Private Home Away From Home,410,7 1/2 St SW,2024-04-28,277,2626757,Faith Levine,Faith Levine,,true
7772434,38.0446,-78.45495,entire_home,The River's Edge Close to Downtown,,,2024-05-04,155,34286709,Sally,,,false
781114197388471090,38.04016842941604,-78.48931998142601,entire_home,"Sol, Washington Park, 2 bed, 1 bath entire home",938,Henry Ave,2024-05-04,34,16381222,Steven Braden,Steven Braden,2 in Fort Meyers FL,false
781118399912095772,38.06518,-78.478,entire_home,Pleasantdale Ridge,,,,,,,,,false
781454230530595940,38.0419056,-78.4633611,entire_home,Cozy Private Floor Near Downtown,1014,St. Charles Ave,2024-05-04,109,27078215,Justin,Erik Duda,,false
7815840,38.062074853291264,-78.47626734793897,entire_home,"Cozy 1BD FULL PRIVATE APT in Charlottesville, VA",1819,Meadowbrook Heights Rd,2024-05-04,633,41147294,Peter McMindes,Peter McMindes,,true
782808535312157732,38.02101647687694,-78.47911384421178,entire_home,Montrose Manor- In the heart of Belmont!,804,Montrose Ave,2024-04-28,56,452695413,Airkey,,,true
7912866,38.03249,-78.48069,entire_home,Old Met #202 |  1 BR  overlooking Downtown Mall,,,2024-05-04,72,41399220,Stay Charlottesville,,,false
792709936269617132,38.03339,-78.46067,entire_home,Studio 6 Close to UVA Hospital,1329,Riverdale Dr,2024-04-28,,329306210,Cville,,,false
792714636426935711,38.0336,-78.45999,entire_home,Studio 7 W/Mountain Views,1329,Riverdale Dr,2024-05-04,,329306210,Cville,,,false
792753155992630631,38.0344666,-78.4610119,entire_home,Studio 3 Close To Downtown Mall,1329,Riverdale Dr,2024-05-04,,329306210,Cville,,,false
792758528595546709,38.03468,-78.46185,entire_home,Studio 2 Close To Downtown Mall,1329,Riverdale Dr,2024-05-04,,329306210,Cville,,,false
792760241205353826,38.03534,-78.46179,entire_home,Studio 8 Close to UVA Hospital,1329,Riverdale Dr,2024-05-04,,329306210,Cville,,,false
792786761514336412,38.0344666,-78.4610119,entire_home,Studio 9 / Close to UVA Hospital,1329,Riverdale Dr,2024-05-04,,329306210,Cville,,,false
792795870971404504,38.03469,-78.46193,entire_home,Studio 5 W/ Bonus Room,1329,Riverdale Dr,2024-05-04,3,329306210,Cville,,,false
792824253182206382,38.0344666,-78.4610119,entire_home,Studio 10 Close To UVA Hospital,1329,Riverdale Dr,2024-05-04,4,329306210,Cville,,,false
792827391802854449,38.0344666,-78.4610119,entire_home,Studio 4 Dog Friendly Near UVA Hospital,1329,Riverdale Dr,2024-05-04,,329306210,Cville,,,false
793373388907875964,38.0344666,-78.4610119,entire_home,Studio 13 W/Patio Near Downtown,1329,Riverdale Dr,2024-05-04,3,329306210,Cville,,,false
793409588586059713,38.0344666,-78.4610119,entire_home,Studio 12 Dog Friendly W/Bonus Room,1329,Riverdale Dr,2024-05-04,3,329306210,Cville,,,false
793415399240764485,38.0344666,-78.4610119,entire_home,Studio 11 W/Mountain Views Close To UVA Hospital,1329,Riverdale Dr,2024-05-04,,329306210,Cville,,,false
795138672997270638,38.03612,-78.49479,entire_home,Downtown Cville Home | Walk to UVA,,,2024-05-04,3,18283461,Mallory,,,false
795627130062220555,38.02119,-78.47822,entire_home,Belmont Apt with Hot Tub!,,,2024-05-04,32,346577817,Caroline,,,false
796546431171870661,38.03,-78.48128,entire_home,The Poseidon - Studio apt near Downtown Mall,,,2024-05-04,10,41399220,Stay Charlottesville,,,false
797264168259246375,38.02777740213496,-78.51242375081515,entire_home,Stadium Hill House,109,Harmon St,2024-05-04,29,494363865,John,,,false
799553556974698884,38.05958788435446,-78.48530650920527,entire_home,Charlottesville Convenience & Comfort-Large Group,1613,Brandywine Dr,2024-02-14,,,,,,false
799624483447198048,38.020997,-78.4974658,private_room,House share w/ private bath in quiet comfort home.,,,2024-05-04,46,28678098,David,,,false
801555579866774054,38.03354605007401,-78.46363120104664,entire_home,*NEW* Newly Renovated Home by Downtown,1411,Hazel St,2024-02-14,,10702433,Jean,,,true
803561217742243817,38.02143761749096,-78.47204002236656,entire_home,Mountain View Rambler | Near DT | King+Queen beds,1119,Leonard St,2024-04-28,99,289159848,Blue Ridge BnB,,,true
811797003090919736,38.01869802916836,-78.51046520707632,entire_home,Charlottesville (Fry’s Spring) UVA Retreat,2313,Willard Dr,2024-05-04,44,2801676,Bart,,,false
815312850918778272,38.017839804666345,-78.49211991429314,entire_home,"Trendy, Mountain Views, Close to Downtown",916,Woodfolk Dr,2024-05-04,19,15601209,Becky,,,false
822055570429675511,38.03359238936481,-78.46158359356718,entire_home,Cozy furnished 1 BR in C-Ville! No cleaning fee!,1517,E High St,2024-05-04,181,128718050,Brent,,,false
823094905327763840,38.0289,-78.50467,entire_home,"Midterm 1 bed, 1 bath apartment: Walk to UVAHealth",,,2024-05-04,,36469809,Jamie,,,false
823095856641521636,38.03082,-78.50565,entire_home,"Midterm 3 bed, 2 bath house: Walk to UVA Hospital",,,2024-05-04,,36469809,Jamie,,,false
826175223879393145,38.01404088419447,-78.50913940513746,entire_home,Homey Entire House close to UVa and downtown mall!,613,Moseley Dr,2024-05-04,3,477869587,Drew,,,true
827619841666046068,38.05040120567775,-78.48480416167119,entire_home,"GreenLeaf | 3 bed, 2 Bath in Rugby Hills",1608,Greenleaf Ln,2024-05-04,12,24936886,Guesthouses,,,true
829073878764418899,38.05189418611989,-78.46021293191932,entire_home,Midterm Pen Park in Central Charlottesville,1140,Pen Park Ln,2024-04-18,,36469809,Jamie,,,false
831729465320691525,38.0633197,-78.5087332,private_room,1 bdrm in Charlottesville near JPJ arena,,,2024-05-04,24,26252702,Jay,,,false
835614277774723048,38.06722,-78.47056,entire_home,115 Central Charlottesville Home,,,2024-05-04,,186023090,Uche,,,false
839008601769416952,38.0209206,-78.48467339999999,entire_home,Bohemian Belmont Home,,,2024-05-04,5,503672365,Zack,,,false
8497015,38.0258,-78.51419,entire_home,"Sunny private studio, walk to the University",,,2024-05-04,315,19198565,Susan,,,false
851437198893371900,38.0310314,-78.4875237,private_room,Loft Suite,,,2024-05-04,,506278517,Quirk,,,false
851475732915603337,38.0310314,-78.4875237,private_room,Quirk Suite,,,2024-05-04,,506278517,Quirk,,,false
853137790939335214,38.030142568725104,-78.49037660751158,entire_home,Walking distance to UVA and downtown! A,301,7th St SW,,,430879092,Meghan,Launch Pads LLC,,false
854242278917596119,38.026830297848704,-78.51410169898917,entire_home,La Maisonette | UVA | JPJ,105,Observatory Ave,2024-05-04,85,54742973,Michelle,,,true
854533079820366197,38.030130754402926,-78.49037934229928,entire_home,Walk to UVA & downtown- 2 bedroom,301,7th St SW,2024-04-18,4,430879092,Meghan,,,false
860338588758285345,38.02291,-78.4746,entire_home,Downtown Belmont Classic,836,Belmont Ave,2024-05-04,12,19901610,"Konstadinos ""Con"" Lazarakis","Konstadinos ""Con"" Lazarakis",,true
861663513382529300,38.02205333718456,-78.47481696867393,entire_home,Monticello Getaway | Walk to Downtown Cville!,932,Monticello Ave,2024-04-25,21,24936886,Guesthouses,,,true
863134032175602036,38.04216167982598,-78.49078993246597,entire_home,Perfect C-Ville headquarters,1110,Preston Ave,2024-05-04,,37447928,Tonya,,,true
864386861000493138,38.03955110773162,-78.51340621176746,entire_home,*NEW* Lewis Mtn Retreat: Walk to UVA & JPJ,2026,Minor Rd,2024-05-04,16,36469809,Jamie,,,false
864639619210940663,38.05221,-78.50232,private_room,Convenience Meets Style! Free Breakfast Here!,,,2024-05-04,,501999514,RoomPicks,,,false
865123089714593670,38.029831,-78.482941,private_room,Rose Jean - Room #1,,,2024-05-04,20,24936886,Guesthouses,,,false
865132294089802666,38.03063,-78.48348,private_room,Rose Jean - Room #2,,,2024-05-04,5,24936886,Guesthouses,,,false
865135112098342657,38.02887,-78.4826,private_room,Rose Jean - Room #3,,,2024-05-04,24,24936886,Guesthouses,,,false
865137048845444496,38.0301,-78.48264,private_room,Rose Jean - Room #4,,,2024-05-04,35,24936886,Guesthouses,,,false
865143567237311471,38.03088,-78.48378,private_room,Rose Jean - Room #5,,,2024-05-04,28,24936886,Guesthouses,,,false
866006667606336654,38.01495511997212,-78.49783697422131,entire_home,Cozy Rancher close to UVA & Downtown C’ville,101,Leigh Pl,2024-04-25,56,321462693,Alex,,,true
867304147989618787,38.02208,-78.4716,private_room,"1920 Original Belmont House, Walk Downtown",,,2024-05-04,40,2863033,Christine,,,false
872899935574341178,38.01913008717556,-78.49672862765884,private_room,Rooms for one near downtown/UVA,960,Rockcreek Rd,,,,,,,false
876083593852874191,38.03889611047886,-78.51152577103575,entire_home,Cameron Cottage | Best UVA Neighborhood,207,Cameron Ln,2024-05-04,10,24936886,Guesthouses,Scott Tepper,,false
876833501459844273,38.03484295318061,-78.4881981777555,entire_home,Robin's Nest on West,708,West St,2024-05-04,7,152969162,Robin,,,false
8773668,38.04451263384458,-78.49275259274002,entire_home,UVA Graduation or Wedding rental,1208,Preston Ave,2024-05-04,4,549537,Penn,,,false
877419552007527811,38.016179248901416,-78.5105246704342,entire_home,The Blue House,102,Oak Lawn Dr,2024-05-04,7,511698548,Meredith,,,true
877711890075727509,38.01941919482401,-78.48372924920166,entire_home,Cozy Perfection Near Everything,1309,Early St,2024-05-04,3,80473852,Holly Hertberg,Kevin Davis,,false
881108831451265287,38.04193804515896,-78.46335227995192,entire_home,Cape Cod Home on Saint Chuck,1014,St Charles Ave,2024-05-04,,27078215,Justin,,,false
882162189525821583,38.03724,-78.46661,entire_home,Brand New Studio Apt in C'ville,,,2024-05-04,,31814282,Elizabeth,,,false
883990803412594505,38.041744170443934,-78.45994886487287,entire_home,Downtown Cville Apartment,1036,Martin St,2024-04-18,,169140017,Paw,,,true
887024752649078732,38.0363416375699,-78.50016381115181,entire_home,Heart of the Action on 'The Corner' at UVa,17,Elliewood Ave,2024-05-04,8,75412768,Channa,,,false
887637685970978714,38.01961,-78.5156,entire_home,Luxury House 3 min from UVA,,,2024-05-04,59,6968690,Mark,,,false
889632523059493197,38.02282756047421,-78.48267172869103,entire_home,"Natalie- Belmont 2 bd/1 ba, walk downtown",921,6th St SE,2024-04-18,31,16381222,Steven Braden,Steven Braden,2 in Fort Meyers FL,false
891222441943408811,38.03965,-78.49407,entire_home,Sunny studio,,,2024-05-04,,23580262,Ajay,,,false
891305837504122073,38.028760071355066,-78.48096903791824,entire_home,“Heart of the city studio”,313,2nd St SW,2024-05-04,45,454399504,Vita,,,false
892003038938675488,38.01835571013165,-78.48339696374497,entire_home,"Belmont BnB ~ Comfort & Convenience ~ 
2 BR/1BA",701,Avon St,2024-05-04,73,514873512,Colleen,,,false
892241177229606891,38.011673302981386,-78.49496550263333,entire_home,Mi Casa Es Su Casa Private Basement Suite,909,Royer Dr,2024-05-04,123,415024333,Mariah,,,false
901395726384448810,38.03252,-78.49399,entire_home,Standard King room at Charlottesville,,,2024-05-04,,516514168,Charlottesville,,,false
901396444634832450,38.03117,-78.4941,entire_home,Standard Two Queen Beds at Charlottesville,,,2024-05-04,,516514168,Charlottesville,,,false
901728627943477191,38.02101839365477,-78.49750404711442,private_room,Dedicated bedroom/bath w/ Queen in house share.,811,Prospect Ave,2024-05-04,,28678098,David,,,true
907921492539010529,38.02989244977957,-78.4830349319268,entire_home,"Entire 5 Bed, 5 Bath Boutique Hotel | Dtwn Cville",209,2nd St SW,2024-05-04,,24936886,Guesthouses,Same St LLC,,false
9129518,38.0232376042478,-78.46043360218428,entire_home,Woolen Mills Retreat | Close to Downtown with pool,1618,E Market St,2024-05-04,51,41399220,Stay Charlottesville,Wells Fargo Bank,,false
9129687,38.02969170843505,-78.47250398037842,entire_home,Pryor-Haynes House Downtown Historic Stately Home,1004,E Jefferson St,2024-05-04,61,41399220,Stay Charlottesville,1004 E Jefferson LLC,,false
9129723,38.02387547782922,-78.47106746552043,entire_home,The Belmont Flat | Located in the popular Belmont,1110,Myrtle St,2024-05-04,172,41399220,Stay Charlottesville,,,false
9129775,38.03113431351982,-78.48117013573349,entire_home,Old Met #306 |  1 BR apt overlooking Downtown Mall,101-111,E Main St,2024-05-04,119,41399220,Stay Charlottesville,,,false
9129878,38.04001904097115,-78.46339958129269,entire_home,Nest on Locust | Stylish Downtown Villa,960,Locust Ave,2024-05-04,5,41399220,Stay Charlottesville,,,false
913703971262176740,38.0209,-78.46659,entire_home,Newly renovated home in Belmont!,,,,,,,,,false
914355761226534025,38.05296,-78.50278,private_room,Excellent Location! 3 Units Near Lemon Grass Park,,,2024-05-04,,501999514,RoomPicks,,,false
914360330148803533,38.05205,-78.50262,private_room,"Minutes from The Lawn! 2 Posh Units, Pet-Friendly",,,2024-05-04,,501999514,RoomPicks,,,false
914365621336050875,38.05366,-78.50279,private_room,"Comfort and Convenience! Pet-Friendly, w/ Pool",,,2024-05-04,,501999514,RoomPicks,,,false
914369886657707275,38.05222,-78.50355,private_room,"Wonderful Stay! Near Dell Tennis Courts, w/ Pool",,,2024-03-07,,,,,,false
914564,38.01828748526763,-78.48076537947084,entire_home,Cozy convenient home in Bellmont,805,Stonehenge Ave,2024-05-04,303,4908729,Gwendolyn,,,true
918018207127866248,38.02927284077804,-78.50680359811335,entire_home,Maywood Midterm: 31+ day stay & walk to UVA,,,2024-05-04,,36469809,Jamie,,,false
918239624728046513,38.03028530876973,-78.46693507128023,entire_home,Woolen Mills Midterm: 31+ Day Rental in Cville,,,2024-04-28,,36469809,Jamie,,,false
919097644400377859,38.03808340250419,-78.51473327246134,entire_home,Central UVA 4 bedroom Floor,2014,Lewis Mountain Rd,2024-05-04,,75412768,Channa,,,false
919860,38.03409695556614,-78.47739219381076,entire_home,The Recycled House - Walk Downtown,401,Hedge St,2024-05-04,125,4942289,Debra,,,true
9212680,38.02185,-78.49043,entire_home,Private Cottage near Downtown/UVA,,,2024-04-25,322,45859106,Joanna,,,false
922567804315179173,38.03796944648907,-78.4777988682072,entire_home,Comfortable North Downtown Bijou,709,Nelson Dr,2024-03-07,19,145047667,Jono,,,false
922611487433847958,38.01029188523999,-78.46258737591884,entire_home,"Sonsak - Main Floor, Unit 2",943,Jefferson Lake Dr,2024-05-04,40,522205730,Vipul,,,false
922616004282322347,38.01029188523999,-78.46258737591884,entire_home,"Sonsak - Main Floor, Unit 4",943,Jefferson Lake Dr,2024-05-04,40,522205730,Vipul,,,false
922617432858029484,38.01029188523999,-78.46258737591884,private_room,"Sonsak - Lower Level, Unit 5",943,Jefferson Lake Dr,2024-05-04,31,522205730,Vipul,,,false
923196998140144004,38.01851240346165,-78.47364708831755,entire_home,Cozy Downtown Cottage!,1112,Montrose Ave,2024-05-04,31,186504742,Jenn,,,true
923844180513985288,38.02588801965208,-78.46323668462804,entire_home,"Eclectic home—quiet, pet-friendly, great location",1434,Chesapeake St,2024-03-07,26,90829281,Megan Salgado,Megan Salgado,,false
9274661,38.03031356226151,-78.5057163788603,entire_home,Adorable cottage steps from Grounds,513,Valley Rd,2024-05-04,373,3271079,Greg,,,false
929652062185734119,38.02400438743492,-78.47975361486651,entire_home,BelmontBNB*Modern*Luxury*near UVA/Wineries*walk2DT,707,Avon St,2024-05-04,39,516719748,Natalie & Joe,Natalie Rodeman,,true
931955681620452203,38.015870766274176,-78.51439710235258,entire_home,The best C'ville getaway! Close to everything!,,,2024-05-04,31,326012373,Ann,,,false
932628091275986268,38.03670871844824,-78.50929411777526,entire_home,Walking Distance to Rotunda - Luxury UVA Home,1916,Thomson Rd,2024-04-25,9,,,,,false
932805044743310858,38.03472851267741,-78.49244890909047,entire_home,"Cozy Annex: Walk to UVA-Hospital, Amtrak, & Bars!",,,2024-05-04,3,29541383,Abdul,,,false
932851036319587240,38.01972480422007,-78.48572824332182,entire_home,Apartment Near Downtown Mall/Belmont,507,Rockland Ave,2024-05-04,8,281181404,Jacob,,,true
933612345574708731,38.01029188523999,-78.46258737591884,entire_home,"Sonsak - Main Floor, Unit 1",943,Jefferson Lake Dr,2024-05-04,25,522205730,Vipul,,,false
933612346153433868,38.01029188523999,-78.46258737591884,private_room,"Sonsak - Main Floor, Unit 3",943,Jefferson Lake Dr,2024-05-04,9,522205730,Vipul,,,false
934622717647432765,38.04194946998402,-78.46022953562144,entire_home,Dreams Really do Come True!,,,2024-05-04,,36901748,Erin,,,false
934793365783929973,38.02247427128297,-78.48762151044382,entire_home,Belmont Oasis I Great Dtwn Cville Location!,146,Burnet St,2024-05-04,8,24936886,Guesthouses,Elizabeth Deng,,false
934810427809244137,38.03631315097328,-78.49384259195321,entire_home,Downtown Charm: Cozy Cottage Near UVA & Breweries,,,2024-05-04,15,29541383,Abdul,,,false
942663882051085619,38.02768929661954,-78.49096346143453,entire_home,Walkable Charlottesville Apt,,,2024-03-07,10,,,,,false
942861977598077361,38.03238973716215,-78.48406058011115,entire_home,Cozystay Signature Charlottesville - Double Deluxe,,,2024-03-02,,520869021,Cozyliving Suites,,,false
942861980791388202,38.031088259124026,-78.4846484372917,entire_home,Cozystay Signature Charlottesville - Suite Executi,,,2024-03-02,,520869021,Cozyliving Suites,,,false
942862085107854003,38.032316521184825,-78.48333359461768,entire_home,Cozystay Signature Charlottesville - Double Deluxe,,,2024-03-02,,520869021,Cozyliving Suites,,,false
942862130938657553,38.03201076705677,-78.48300403683595,entire_home,Cozystay Signature Charlottesville - Suite King Si,,,2024-03-02,,520869021,Cozyliving Suites,,,false
944294479654388469,38.030051,-78.48051699999999,entire_home,Bird Cage | 3 King Beds | Door to DT Mall,,,2024-05-04,39,289159848,Blue Ridge BnB,,,false
946271102809832834,38.02532301449834,-78.47604355593553,entire_home,1BR Beautiful Belmont Apt Walk Everywhere!,402,Monticello Rd,2024-04-18,6,19981655,Alexandra,,,false
947658407699410842,38.03670871844824,-78.50929411777526,entire_home,Luxury UVA Cottage - Outdoor Fireplace & Pergola,1916,Thomson Rd,2024-04-25,12,,,,,false
947790046022562479,38.03670871844824,-78.50929411777526,entire_home,Luxury 3-bedroom House at UVA - Outdoor Fireplace,1916,Thomson Rd,2024-05-04,6,524891155,Thatcher,,,false
947875423700120586,38.06537686835601,-78.46624819803871,entire_home,Hoos Nest,2310,Tarleton Dr,2024-05-04,20,101428330,Ashley,,,false
948963780822535962,38.01696063666211,-78.50850506656516,entire_home,Charming Retreat in Charlottesville w/ Deck!,2605,Willard Dr,2024-05-04,19,122382567,Evolve,,,false
949314156000912748,38.02442267723136,-78.48036142023948,entire_home,Tropical Pool House Oasis in Downtown C-Ville,,,2024-02-23,,,,,,false
953582672381513508,38.04252145746727,-78.46145072696196,entire_home,Centrally located by UVA/Stadium,1035,Locust Ave,2024-05-04,,69276467,Stephanie,,,true
9541865,38.04286,-78.46197,entire_home,Guest House on Locust | near Downtown,,,2024-03-02,37,,,,,false
954191920340863687,38.02109068290827,-78.49567652967329,entire_home,Private oasis in the city,609,Bailey Rd,2024-03-07,10,,,,,false
954218870224259730,38.0292585919783,-78.47801591411921,entire_home,The Gatsby,,,2024-05-04,,41399220,Stay Charlottesville,,,false
955000809586205510,38.025640841822714,-78.46494906608339,entire_home,The Modern at Woolen Mills,1329,E Market St,2024-05-04,18,13893367,Amelia,,,true
957183765477454574,38.03977065358725,-78.46176594800217,entire_home,Cozy Home Locust Grove,,,2024-05-04,20,75597854,Elizabeth,,,false
958821302617547395,38.01460568018782,-78.51525795684356,entire_home,Charlottesville Oasis~5min Drive to UVA (Duplex A),236,Old Lynchburg Rd,2024-05-04,9,108937443,Basleal,,,false
958907790056728763,38.01404885448101,-78.51719372304758,entire_home,Fry's Spring Apt! 5 mins to UVA,2727,McElroy Dr,2024-05-04,17,58883190,Megan,,,false
958923123393985968,38.0226765611356,-78.47678617345078,private_room,Bright Belmont Guest Suite,,,2024-05-04,13,24316771,Fenella,,,false
958951586135313453,38.01353987966725,-78.51435840398204,entire_home,Newly Renovated Home~5min to UVA (Duplex B),236,Old Lynchburg Rd,2024-05-04,20,108937443,Basleal,,,false
964598796048682838,38.018295151700165,-78.51310611341282,private_room,2603 Jefferson Park Avenue Airbnb,2603,Jefferson Park Ave,2024-05-04,4,380444354,Theodora,,,false
965964089949081590,38.02466711668878,-78.51582279200035,entire_home,Basement with the Basics - 1/2 mile to UVA,,,2024-05-04,5,51355742,Amy,,,false
966509507544041856,38.046950254413,-78.48408701184624,entire_home,Cute Cape in Charlottesville,1506,Oxford Rd,2024-02-26,,150569015,Emily,,,false
968878198702541172,38.02286417961445,-78.51269608312016,entire_home,Quiet 2 BR Walk to UVA,,,2024-05-04,,194933778,Lori,,,false
969100575802234487,38.067589584003926,-78.50293305418897,private_room,Queen bedroom with Private bathroom,99,Biltmore Dr,2024-03-07,7,,,,,false
9704469,38.02579461770468,-78.48003612201124,entire_home,Adorable Downtown Cottage,604,Belmont Ave,2024-05-04,348,50109497,Andrew,,,true
972551779719615360,38.0311970615077,-78.47832849515822,entire_home,The Townie 3 BD/2BA Historic Downtown Building,,,2024-05-04,35,3292676,Melissa,,,false
973403332642230821,38.0243936000579,-78.47068957438508,entire_home,Basic Belmont Apt+ Air Hockey + Walkable Downtown,305,Chestnut St,2024-05-04,36,9480855,Elsa Spencer,Elsa Spencer,,true
974557251830997610,38.02617012608325,-78.51754248322874,entire_home,Cavalier Cocoon: Studio + Walk to uva Grounds,2311,Fontaine Ave,2024-05-04,8,36469809,Jamie,,,true
974606593178781123,38.042370982362414,-78.50302847180666,entire_home,Home on UVA Campus! On site parking!,35,University Cir,,,,,,,false
974794130202491589,38.02617012608325,-78.51754248322874,entire_home,"Fontaine Midterm: Fully Furnished, Walk to UVA",2311,Fontaine Ave,2024-05-04,,36469809,Jamie,,,true
975690792140995765,38.05174581635193,-78.49649072003263,entire_home,Private apartment in great location near UVA,,,2024-05-04,11,77098268,Lynne,,,false
977683525893143884,38.02127,-78.47172,entire_home,Fun sunny 2 bedroom  home in Belmont,,,2024-05-04,,44940909,Seth,,,false
978139550782214361,38.03815,-78.51077,entire_home,The Groundskeeper-Walk to UVA/JPJ/Scott/Klockner,,,2024-05-04,24,327184333,Michael,,,false
98084,38.03460334057823,-78.47956663478611,entire_home,North of Downtown Mall-Historic Area,504,1st St N,2024-05-04,351,501339,Gen,Joseph Keller,,true
983927166127022738,38.04803134994451,-78.46220897084585,entire_home,"3 Bed, 3 Bath Cute Home in Charlottesville",1220,Agnese St,2024-05-04,,359472305,Michael Nafziger,Michael Nafziger,,false
983941603149368741,38.0300616,-78.4805093,entire_home,DreamBird | On the DT Mall | Up to 14 Guests,,,2024-05-04,,289159848,Blue Ridge BnB,,,false
9844794,38.03031,-78.48795,entire_home,"Modern, Light-filled Home - Family Friendly",,,2024-05-04,11,1440501,Lisa,,,false
985544985433728728,38.02702200584268,-78.49665345197435,entire_home,Charlottesville Oasis: Guests Love the Location!,,,2024-05-04,36,168889407,Erin,,,false
986088902067093517,38.03485841240403,-78.49985913564699,private_room,Double Queen Guestroom at Little Mod Hotel,,,2024-05-04,,538372840,Little Mod,,,false
986123235529847097,38.0364,-78.49853,private_room,King Room at Little Mod Hotel,,,2024-05-04,,538372840,Little Mod,,,false
987237184038367929,38.07433206386674,-78.4867718801486,entire_home,House in commonwealth,392,Minor Ridge Rd,2024-05-04,7,365144689,Madhav,,,false
992067846251851012,38.02325039054416,-78.49054260068665,entire_home,Spacious Apt 1 In Historical Building,752,Ridge St,2024-04-28,,329306210,Cville,,,false
992078227781879484,38.02325039054416,-78.49054260068665,entire_home,Close To UVA Hospital Apt 4 In Historical Building,752,Ridge St,2024-05-04,,329306210,Cville,,,false
9985512,38.039732682238785,-78.46959551406984,entire_home,"Studio Guest ""Cottage""",624,Watson Ave,2024-05-04,156,28226647,Anna,,,true
